<?xml version="1.0"?>
<gpx version="1.1" creator="ultralink"><trk><name>OP DEMO STAGE</name><trkseg>
<trkpt lat="-20.348180" lon="57.552280"><ele>40.0</ele></trkpt>
<trkpt lat="-20.347960" lon="57.552361"><ele>42.1</ele></trkpt>
<trkpt lat="-20.347740" lon="57.552443"><ele>44.2</ele></trkpt>
<trkpt lat="-20.347520" lon="57.552526"><ele>46.3</ele></trkpt>
<trkpt lat="-20.347300" lon="57.552609"><ele>48.4</ele></trkpt>
<trkpt lat="-20.347080" lon="57.552694"><ele>50.5</ele></trkpt>
<trkpt lat="-20.346860" lon="57.552779"><ele>52.6</ele></trkpt>
<trkpt lat="-20.346640" lon="57.552866"><ele>54.7</ele></trkpt>
<trkpt lat="-20.346421" lon="57.552953"><ele>56.8</ele></trkpt>
<trkpt lat="-20.346201" lon="57.553042"><ele>58.8</ele></trkpt>
<trkpt lat="-20.345981" lon="57.553131"><ele>60.9</ele></trkpt>
<trkpt lat="-20.345761" lon="57.553221"><ele>63.0</ele></trkpt>
<trkpt lat="-20.345542" lon="57.553312"><ele>65.1</ele></trkpt>
<trkpt lat="-20.345322" lon="57.553404"><ele>67.1</ele></trkpt>
<trkpt lat="-20.345103" lon="57.553497"><ele>69.2</ele></trkpt>
<trkpt lat="-20.344883" lon="57.553591"><ele>71.2</ele></trkpt>
<trkpt lat="-20.344664" lon="57.553686"><ele>73.3</ele></trkpt>
<trkpt lat="-20.344445" lon="57.553782"><ele>75.3</ele></trkpt>
<trkpt lat="-20.344226" lon="57.553879"><ele>77.3</ele></trkpt>
<trkpt lat="-20.344007" lon="57.553976"><ele>79.3</ele></trkpt>
<trkpt lat="-20.343788" lon="57.554075"><ele>81.3</ele></trkpt>
<trkpt lat="-20.343569" lon="57.554174"><ele>83.3</ele></trkpt>
<trkpt lat="-20.343350" lon="57.554275"><ele>85.3</ele></trkpt>
<trkpt lat="-20.343132" lon="57.554376"><ele>87.3</ele></trkpt>
<trkpt lat="-20.342913" lon="57.554478"><ele>89.2</ele></trkpt>
<trkpt lat="-20.342695" lon="57.554582"><ele>91.2</ele></trkpt>
<trkpt lat="-20.342477" lon="57.554686"><ele>93.1</ele></trkpt>
<trkpt lat="-20.342259" lon="57.554791"><ele>95.0</ele></trkpt>
<trkpt lat="-20.342041" lon="57.554897"><ele>97.0</ele></trkpt>
<trkpt lat="-20.341824" lon="57.555004"><ele>98.8</ele></trkpt>
<trkpt lat="-20.341606" lon="57.555111"><ele>100.7</ele></trkpt>
<trkpt lat="-20.341389" lon="57.555220"><ele>102.6</ele></trkpt>
<trkpt lat="-20.341171" lon="57.555330"><ele>104.5</ele></trkpt>
<trkpt lat="-20.340954" lon="57.555440"><ele>106.3</ele></trkpt>
<trkpt lat="-20.340738" lon="57.555552"><ele>108.1</ele></trkpt>
<trkpt lat="-20.340521" lon="57.555664"><ele>109.9</ele></trkpt>
<trkpt lat="-20.340304" lon="57.555778"><ele>111.7</ele></trkpt>
<trkpt lat="-20.340088" lon="57.555892"><ele>113.5</ele></trkpt>
<trkpt lat="-20.339872" lon="57.556007"><ele>115.2</ele></trkpt>
<trkpt lat="-20.339656" lon="57.556123"><ele>117.0</ele></trkpt>
<trkpt lat="-20.339441" lon="57.556240"><ele>118.7</ele></trkpt>
<trkpt lat="-20.339225" lon="57.556358"><ele>120.4</ele></trkpt>
<trkpt lat="-20.339010" lon="57.556477"><ele>122.1</ele></trkpt>
<trkpt lat="-20.338795" lon="57.556597"><ele>123.7</ele></trkpt>
<trkpt lat="-20.338581" lon="57.556717"><ele>125.4</ele></trkpt>
<trkpt lat="-20.338366" lon="57.556839"><ele>127.0</ele></trkpt>
<trkpt lat="-20.338152" lon="57.556961"><ele>128.6</ele></trkpt>
<trkpt lat="-20.337938" lon="57.557085"><ele>130.2</ele></trkpt>
<trkpt lat="-20.337724" lon="57.557209"><ele>131.7</ele></trkpt>
<trkpt lat="-20.337511" lon="57.557335"><ele>133.3</ele></trkpt>
<trkpt lat="-20.337298" lon="57.557461"><ele>134.8</ele></trkpt>
<trkpt lat="-20.337085" lon="57.557588"><ele>136.3</ele></trkpt>
<trkpt lat="-20.336872" lon="57.557716"><ele>137.8</ele></trkpt>
<trkpt lat="-20.336660" lon="57.557845"><ele>139.2</ele></trkpt>
<trkpt lat="-20.336448" lon="57.557975"><ele>140.6</ele></trkpt>
<trkpt lat="-20.336236" lon="57.558105"><ele>142.0</ele></trkpt>
<trkpt lat="-20.336025" lon="57.558237"><ele>143.4</ele></trkpt>
<trkpt lat="-20.335814" lon="57.558370"><ele>144.8</ele></trkpt>
<trkpt lat="-20.335603" lon="57.558503"><ele>146.1</ele></trkpt>
<trkpt lat="-20.335392" lon="57.558637"><ele>147.4</ele></trkpt>
<trkpt lat="-20.335182" lon="57.558773"><ele>148.7</ele></trkpt>
<trkpt lat="-20.334972" lon="57.558909"><ele>150.0</ele></trkpt>
<trkpt lat="-20.334763" lon="57.559046"><ele>151.2</ele></trkpt>
<trkpt lat="-20.334554" lon="57.559184"><ele>152.4</ele></trkpt>
<trkpt lat="-20.334345" lon="57.559323"><ele>153.6</ele></trkpt>
<trkpt lat="-20.334136" lon="57.559463"><ele>154.8</ele></trkpt>
<trkpt lat="-20.333928" lon="57.559603"><ele>155.9</ele></trkpt>
<trkpt lat="-20.333720" lon="57.559745"><ele>157.0</ele></trkpt>
<trkpt lat="-20.333513" lon="57.559888"><ele>158.1</ele></trkpt>
<trkpt lat="-20.333306" lon="57.560031"><ele>159.2</ele></trkpt>
<trkpt lat="-20.333099" lon="57.560175"><ele>160.2</ele></trkpt>
<trkpt lat="-20.332893" lon="57.560321"><ele>161.2</ele></trkpt>
<trkpt lat="-20.332687" lon="57.560467"><ele>162.2</ele></trkpt>
<trkpt lat="-20.332482" lon="57.560614"><ele>163.2</ele></trkpt>
<trkpt lat="-20.332276" lon="57.560762"><ele>164.1</ele></trkpt>
<trkpt lat="-20.332072" lon="57.560910"><ele>165.0</ele></trkpt>
<trkpt lat="-20.331867" lon="57.561060"><ele>165.9</ele></trkpt>
<trkpt lat="-20.331663" lon="57.561211"><ele>166.8</ele></trkpt>
<trkpt lat="-20.331460" lon="57.561362"><ele>167.6</ele></trkpt>
<trkpt lat="-20.331257" lon="57.561515"><ele>168.4</ele></trkpt>
<trkpt lat="-20.331054" lon="57.561668"><ele>169.2</ele></trkpt>
<trkpt lat="-20.330852" lon="57.561822"><ele>169.9</ele></trkpt>
<trkpt lat="-20.330650" lon="57.561977"><ele>170.7</ele></trkpt>
<trkpt lat="-20.330449" lon="57.562133"><ele>171.4</ele></trkpt>
<trkpt lat="-20.330248" lon="57.562290"><ele>172.1</ele></trkpt>
<trkpt lat="-20.330048" lon="57.562448"><ele>172.7</ele></trkpt>
<trkpt lat="-20.329848" lon="57.562606"><ele>173.3</ele></trkpt>
<trkpt lat="-20.329648" lon="57.562766"><ele>173.9</ele></trkpt>
<trkpt lat="-20.329449" lon="57.562926"><ele>174.5</ele></trkpt>
<trkpt lat="-20.329251" lon="57.563087"><ele>175.0</ele></trkpt>
<trkpt lat="-20.329053" lon="57.563250"><ele>175.6</ele></trkpt>
<trkpt lat="-20.328855" lon="57.563413"><ele>176.0</ele></trkpt>
<trkpt lat="-20.328658" lon="57.563576"><ele>176.5</ele></trkpt>
<trkpt lat="-20.328461" lon="57.563741"><ele>177.0</ele></trkpt>
<trkpt lat="-20.328265" lon="57.563907"><ele>177.4</ele></trkpt>
<trkpt lat="-20.328069" lon="57.564073"><ele>177.8</ele></trkpt>
<trkpt lat="-20.327874" lon="57.564241"><ele>178.1</ele></trkpt>
<trkpt lat="-20.327680" lon="57.564409"><ele>178.5</ele></trkpt>
<trkpt lat="-20.327485" lon="57.564578"><ele>178.8</ele></trkpt>
<trkpt lat="-20.327292" lon="57.564748"><ele>179.1</ele></trkpt>
<trkpt lat="-20.327099" lon="57.564919"><ele>179.4</ele></trkpt>
<trkpt lat="-20.326906" lon="57.565091"><ele>179.6</ele></trkpt>
<trkpt lat="-20.326714" lon="57.565264"><ele>179.8</ele></trkpt>
<trkpt lat="-20.326523" lon="57.565437"><ele>180.0</ele></trkpt>
<trkpt lat="-20.326332" lon="57.565611"><ele>180.2</ele></trkpt>
<trkpt lat="-20.326141" lon="57.565787"><ele>180.3</ele></trkpt>
<trkpt lat="-20.325952" lon="57.565963"><ele>180.5</ele></trkpt>
<trkpt lat="-20.325762" lon="57.566140"><ele>180.6</ele></trkpt>
<trkpt lat="-20.325574" lon="57.566318"><ele>180.7</ele></trkpt>
<trkpt lat="-20.325386" lon="57.566496"><ele>180.7</ele></trkpt>
<trkpt lat="-20.325198" lon="57.566676"><ele>180.8</ele></trkpt>
<trkpt lat="-20.325011" lon="57.566856"><ele>180.8</ele></trkpt>
<trkpt lat="-20.324825" lon="57.567037"><ele>180.8</ele></trkpt>
<trkpt lat="-20.324639" lon="57.567219"><ele>180.7</ele></trkpt>
<trkpt lat="-20.324454" lon="57.567402"><ele>180.7</ele></trkpt>
<trkpt lat="-20.324269" lon="57.567586"><ele>180.6</ele></trkpt>
<trkpt lat="-20.324085" lon="57.567771"><ele>180.5</ele></trkpt>
<trkpt lat="-20.323902" lon="57.567956"><ele>180.4</ele></trkpt>
<trkpt lat="-20.323719" lon="57.568143"><ele>180.3</ele></trkpt>
<trkpt lat="-20.323537" lon="57.568330"><ele>180.1</ele></trkpt>
<trkpt lat="-20.323355" lon="57.568518"><ele>180.0</ele></trkpt>
<trkpt lat="-20.323174" lon="57.568707"><ele>179.8</ele></trkpt>
<trkpt lat="-20.322994" lon="57.568897"><ele>179.6</ele></trkpt>
<trkpt lat="-20.322814" lon="57.569087"><ele>179.4</ele></trkpt>
<trkpt lat="-20.322635" lon="57.569279"><ele>179.1</ele></trkpt>
<trkpt lat="-20.322457" lon="57.569471"><ele>178.9</ele></trkpt>
<trkpt lat="-20.322279" lon="57.569664"><ele>178.6</ele></trkpt>
<trkpt lat="-20.322102" lon="57.569858"><ele>178.3</ele></trkpt>
<trkpt lat="-20.321925" lon="57.570053"><ele>178.0</ele></trkpt>
<trkpt lat="-20.321749" lon="57.570248"><ele>177.7</ele></trkpt>
<trkpt lat="-20.321574" lon="57.570445"><ele>177.4</ele></trkpt>
<trkpt lat="-20.321400" lon="57.570642"><ele>177.0</ele></trkpt>
<trkpt lat="-20.321226" lon="57.570840"><ele>176.6</ele></trkpt>
<trkpt lat="-20.321053" lon="57.571039"><ele>176.3</ele></trkpt>
<trkpt lat="-20.320880" lon="57.571239"><ele>175.9</ele></trkpt>
<trkpt lat="-20.320709" lon="57.571439"><ele>175.5</ele></trkpt>
<trkpt lat="-20.320538" lon="57.571641"><ele>175.1</ele></trkpt>
<trkpt lat="-20.320367" lon="57.571843"><ele>174.6</ele></trkpt>
<trkpt lat="-20.320198" lon="57.572046"><ele>174.2</ele></trkpt>
<trkpt lat="-20.320029" lon="57.572250"><ele>173.7</ele></trkpt>
<trkpt lat="-20.319860" lon="57.572454"><ele>173.3</ele></trkpt>
<trkpt lat="-20.319693" lon="57.572660"><ele>172.8</ele></trkpt>
<trkpt lat="-20.319526" lon="57.572866"><ele>172.3</ele></trkpt>
<trkpt lat="-20.319360" lon="57.573073"><ele>171.8</ele></trkpt>
<trkpt lat="-20.319194" lon="57.573281"><ele>171.3</ele></trkpt>
<trkpt lat="-20.319030" lon="57.573490"><ele>170.8</ele></trkpt>
<trkpt lat="-20.318866" lon="57.573699"><ele>170.3</ele></trkpt>
<trkpt lat="-20.318703" lon="57.573910"><ele>169.8</ele></trkpt>
<trkpt lat="-20.318540" lon="57.574121"><ele>169.2</ele></trkpt>
<trkpt lat="-20.318378" lon="57.574333"><ele>168.7</ele></trkpt>
<trkpt lat="-20.318217" lon="57.574545"><ele>168.2</ele></trkpt>
<trkpt lat="-20.318057" lon="57.574759"><ele>167.6</ele></trkpt>
<trkpt lat="-20.317898" lon="57.574973"><ele>167.1</ele></trkpt>
<trkpt lat="-20.317739" lon="57.575188"><ele>166.5</ele></trkpt>
<trkpt lat="-20.317581" lon="57.575404"><ele>165.9</ele></trkpt>
<trkpt lat="-20.317424" lon="57.575621"><ele>165.4</ele></trkpt>
<trkpt lat="-20.317268" lon="57.575838"><ele>164.8</ele></trkpt>
<trkpt lat="-20.317112" lon="57.576057"><ele>164.2</ele></trkpt>
<trkpt lat="-20.316957" lon="57.576276"><ele>163.6</ele></trkpt>
<trkpt lat="-20.316803" lon="57.576495"><ele>163.1</ele></trkpt>
<trkpt lat="-20.316650" lon="57.576716"><ele>162.5</ele></trkpt>
<trkpt lat="-20.316497" lon="57.576937"><ele>161.9</ele></trkpt>
<trkpt lat="-20.316346" lon="57.577160"><ele>161.3</ele></trkpt>
<trkpt lat="-20.316195" lon="57.577383"><ele>160.7</ele></trkpt>
<trkpt lat="-20.316045" lon="57.577606"><ele>160.1</ele></trkpt>
<trkpt lat="-20.315895" lon="57.577831"><ele>159.6</ele></trkpt>
<trkpt lat="-20.315747" lon="57.578056"><ele>159.0</ele></trkpt>
<trkpt lat="-20.315599" lon="57.578282"><ele>158.4</ele></trkpt>
<trkpt lat="-20.315452" lon="57.578509"><ele>157.8</ele></trkpt>
<trkpt lat="-20.315306" lon="57.578737"><ele>157.3</ele></trkpt>
<trkpt lat="-20.315161" lon="57.578965"><ele>156.7</ele></trkpt>
<trkpt lat="-20.315017" lon="57.579194"><ele>156.1</ele></trkpt>
<trkpt lat="-20.314873" lon="57.579424"><ele>155.6</ele></trkpt>
<trkpt lat="-20.314731" lon="57.579654"><ele>155.0</ele></trkpt>
<trkpt lat="-20.314589" lon="57.579886"><ele>154.5</ele></trkpt>
<trkpt lat="-20.314448" lon="57.580118"><ele>153.9</ele></trkpt>
<trkpt lat="-20.314307" lon="57.580351"><ele>153.4</ele></trkpt>
<trkpt lat="-20.314168" lon="57.580584"><ele>152.8</ele></trkpt>
<trkpt lat="-20.314030" lon="57.580819"><ele>152.3</ele></trkpt>
<trkpt lat="-20.313892" lon="57.581054"><ele>151.8</ele></trkpt>
<trkpt lat="-20.313755" lon="57.581290"><ele>151.3</ele></trkpt>
<trkpt lat="-20.313619" lon="57.581526"><ele>150.8</ele></trkpt>
<trkpt lat="-20.313484" lon="57.581764"><ele>150.3</ele></trkpt>
<trkpt lat="-20.313350" lon="57.582002"><ele>149.8</ele></trkpt>
<trkpt lat="-20.313217" lon="57.582241"><ele>149.3</ele></trkpt>
<trkpt lat="-20.313085" lon="57.582480"><ele>148.9</ele></trkpt>
<trkpt lat="-20.312953" lon="57.582721"><ele>148.4</ele></trkpt>
<trkpt lat="-20.312822" lon="57.582962"><ele>148.0</ele></trkpt>
<trkpt lat="-20.312693" lon="57.583203"><ele>147.5</ele></trkpt>
<trkpt lat="-20.312564" lon="57.583446"><ele>147.1</ele></trkpt>
<trkpt lat="-20.312436" lon="57.583689"><ele>146.7</ele></trkpt>
<trkpt lat="-20.312309" lon="57.583933"><ele>146.3</ele></trkpt>
<trkpt lat="-20.312183" lon="57.584178"><ele>145.9</ele></trkpt>
<trkpt lat="-20.312057" lon="57.584423"><ele>145.5</ele></trkpt>
<trkpt lat="-20.311933" lon="57.584669"><ele>145.2</ele></trkpt>
<trkpt lat="-20.311809" lon="57.584916"><ele>144.8</ele></trkpt>
<trkpt lat="-20.311687" lon="57.585163"><ele>144.5</ele></trkpt>
<trkpt lat="-20.311565" lon="57.585411"><ele>144.2</ele></trkpt>
<trkpt lat="-20.311445" lon="57.585660"><ele>143.9</ele></trkpt>
<trkpt lat="-20.311325" lon="57.585910"><ele>143.6</ele></trkpt>
<trkpt lat="-20.311206" lon="57.586160"><ele>143.3</ele></trkpt>
<trkpt lat="-20.311088" lon="57.586411"><ele>143.1</ele></trkpt>
<trkpt lat="-20.310971" lon="57.586663"><ele>142.8</ele></trkpt>
<trkpt lat="-20.310855" lon="57.586915"><ele>142.6</ele></trkpt>
<trkpt lat="-20.310740" lon="57.587169"><ele>142.4</ele></trkpt>
<trkpt lat="-20.310626" lon="57.587422"><ele>142.2</ele></trkpt>
<trkpt lat="-20.310512" lon="57.587677"><ele>142.0</ele></trkpt>
<trkpt lat="-20.310400" lon="57.587932"><ele>141.8</ele></trkpt>
<trkpt lat="-20.310289" lon="57.588188"><ele>141.7</ele></trkpt>
<trkpt lat="-20.310178" lon="57.588444"><ele>141.6</ele></trkpt>
<trkpt lat="-20.310069" lon="57.588702"><ele>141.5</ele></trkpt>
<trkpt lat="-20.309960" lon="57.588960"><ele>141.4</ele></trkpt>
<trkpt lat="-20.309853" lon="57.589218"><ele>141.3</ele></trkpt>
<trkpt lat="-20.309746" lon="57.589477"><ele>141.3</ele></trkpt>
<trkpt lat="-20.309640" lon="57.589737"><ele>141.2</ele></trkpt>
<trkpt lat="-20.309536" lon="57.589998"><ele>141.2</ele></trkpt>
<trkpt lat="-20.309432" lon="57.590259"><ele>141.2</ele></trkpt>
<trkpt lat="-20.309329" lon="57.590521"><ele>141.2</ele></trkpt>
<trkpt lat="-20.309228" lon="57.590784"><ele>141.3</ele></trkpt>
<trkpt lat="-20.309127" lon="57.591047"><ele>141.3</ele></trkpt>
<trkpt lat="-20.309027" lon="57.591311"><ele>141.4</ele></trkpt>
<trkpt lat="-20.308928" lon="57.591575"><ele>141.5</ele></trkpt>
<trkpt lat="-20.308830" lon="57.591841"><ele>141.7</ele></trkpt>
<trkpt lat="-20.308734" lon="57.592106"><ele>141.8</ele></trkpt>
<trkpt lat="-20.308638" lon="57.592373"><ele>142.0</ele></trkpt>
<trkpt lat="-20.308543" lon="57.592640"><ele>142.1</ele></trkpt>
<trkpt lat="-20.308449" lon="57.592908"><ele>142.3</ele></trkpt>
<trkpt lat="-20.308356" lon="57.593176"><ele>142.6</ele></trkpt>
<trkpt lat="-20.308264" lon="57.593445"><ele>142.8</ele></trkpt>
<trkpt lat="-20.308173" lon="57.593715"><ele>143.1</ele></trkpt>
<trkpt lat="-20.308084" lon="57.593986"><ele>143.3</ele></trkpt>
<trkpt lat="-20.307995" lon="57.594257"><ele>143.7</ele></trkpt>
<trkpt lat="-20.307907" lon="57.594528"><ele>144.0</ele></trkpt>
<trkpt lat="-20.307820" lon="57.594800"><ele>144.3</ele></trkpt>
<trkpt lat="-20.307734" lon="57.595073"><ele>144.7</ele></trkpt>
<trkpt lat="-20.307649" lon="57.595347"><ele>145.1</ele></trkpt>
<trkpt lat="-20.307566" lon="57.595621"><ele>145.5</ele></trkpt>
<trkpt lat="-20.307483" lon="57.595896"><ele>145.9</ele></trkpt>
<trkpt lat="-20.307401" lon="57.596171"><ele>146.3</ele></trkpt>
<trkpt lat="-20.307320" lon="57.596447"><ele>146.8</ele></trkpt>
<trkpt lat="-20.307241" lon="57.596723"><ele>147.3</ele></trkpt>
<trkpt lat="-20.307162" lon="57.597001"><ele>147.8</ele></trkpt>
<trkpt lat="-20.307084" lon="57.597278"><ele>148.3</ele></trkpt>
<trkpt lat="-20.307008" lon="57.597557"><ele>148.9</ele></trkpt>
<trkpt lat="-20.306932" lon="57.597836"><ele>149.5</ele></trkpt>
<trkpt lat="-20.306857" lon="57.598115"><ele>150.0</ele></trkpt>
<trkpt lat="-20.306784" lon="57.598395"><ele>150.6</ele></trkpt>
<trkpt lat="-20.306711" lon="57.598676"><ele>151.3</ele></trkpt>
<trkpt lat="-20.306640" lon="57.598957"><ele>151.9</ele></trkpt>
<trkpt lat="-20.306569" lon="57.599239"><ele>152.6</ele></trkpt>
<trkpt lat="-20.306500" lon="57.599522"><ele>153.3</ele></trkpt>
<trkpt lat="-20.306432" lon="57.599805"><ele>154.0</ele></trkpt>
<trkpt lat="-20.306364" lon="57.600089"><ele>154.7</ele></trkpt>
<trkpt lat="-20.306298" lon="57.600373"><ele>155.4</ele></trkpt>
<trkpt lat="-20.306233" lon="57.600658"><ele>156.2</ele></trkpt>
<trkpt lat="-20.306169" lon="57.600943"><ele>157.0</ele></trkpt>
<trkpt lat="-20.306106" lon="57.601229"><ele>157.8</ele></trkpt>
<trkpt lat="-20.306044" lon="57.601516"><ele>158.6</ele></trkpt>
<trkpt lat="-20.305983" lon="57.601803"><ele>159.4</ele></trkpt>
<trkpt lat="-20.305923" lon="57.602090"><ele>160.3</ele></trkpt>
<trkpt lat="-20.305864" lon="57.602378"><ele>161.1</ele></trkpt>
<trkpt lat="-20.305806" lon="57.602667"><ele>162.0</ele></trkpt>
<trkpt lat="-20.305750" lon="57.602956"><ele>162.9</ele></trkpt>
<trkpt lat="-20.305694" lon="57.603246"><ele>163.8</ele></trkpt>
<trkpt lat="-20.305639" lon="57.603537"><ele>164.7</ele></trkpt>
<trkpt lat="-20.305586" lon="57.603828"><ele>165.7</ele></trkpt>
<trkpt lat="-20.305533" lon="57.604119"><ele>166.7</ele></trkpt>
<trkpt lat="-20.305482" lon="57.604411"><ele>167.6</ele></trkpt>
<trkpt lat="-20.305432" lon="57.604704"><ele>168.6</ele></trkpt>
<trkpt lat="-20.305382" lon="57.604997"><ele>169.6</ele></trkpt>
<trkpt lat="-20.305334" lon="57.605290"><ele>170.6</ele></trkpt>
<trkpt lat="-20.305287" lon="57.605585"><ele>171.7</ele></trkpt>
<trkpt lat="-20.305241" lon="57.605879"><ele>172.7</ele></trkpt>
<trkpt lat="-20.305196" lon="57.606175"><ele>173.8</ele></trkpt>
<trkpt lat="-20.305152" lon="57.606470"><ele>174.9</ele></trkpt>
<trkpt lat="-20.305109" lon="57.606766"><ele>175.9</ele></trkpt>
<trkpt lat="-20.305068" lon="57.607063"><ele>177.0</ele></trkpt>
<trkpt lat="-20.305027" lon="57.607361"><ele>178.2</ele></trkpt>
<trkpt lat="-20.304987" lon="57.607658"><ele>179.3</ele></trkpt>
<trkpt lat="-20.304949" lon="57.607957"><ele>180.4</ele></trkpt>
<trkpt lat="-20.304912" lon="57.608255"><ele>181.5</ele></trkpt>
<trkpt lat="-20.304875" lon="57.608555"><ele>182.7</ele></trkpt>
<trkpt lat="-20.304840" lon="57.608854"><ele>183.9</ele></trkpt>
<trkpt lat="-20.304806" lon="57.609155"><ele>185.0</ele></trkpt>
<trkpt lat="-20.304773" lon="57.609455"><ele>186.2</ele></trkpt>
<trkpt lat="-20.304741" lon="57.609757"><ele>187.4</ele></trkpt>
<trkpt lat="-20.304710" lon="57.610058"><ele>188.6</ele></trkpt>
<trkpt lat="-20.304680" lon="57.610361"><ele>189.8</ele></trkpt>
<trkpt lat="-20.304652" lon="57.610663"><ele>191.0</ele></trkpt>
<trkpt lat="-20.304624" lon="57.610967"><ele>192.2</ele></trkpt>
<trkpt lat="-20.304597" lon="57.611270"><ele>193.4</ele></trkpt>
<trkpt lat="-20.304572" lon="57.611574"><ele>194.7</ele></trkpt>
<trkpt lat="-20.304548" lon="57.611879"><ele>195.9</ele></trkpt>
<trkpt lat="-20.304524" lon="57.612184"><ele>197.2</ele></trkpt>
<trkpt lat="-20.304502" lon="57.612490"><ele>198.4</ele></trkpt>
<trkpt lat="-20.304481" lon="57.612796"><ele>199.6</ele></trkpt>
<trkpt lat="-20.304461" lon="57.613102"><ele>200.9</ele></trkpt>
<trkpt lat="-20.304443" lon="57.613409"><ele>202.1</ele></trkpt>
<trkpt lat="-20.304425" lon="57.613716"><ele>203.4</ele></trkpt>
<trkpt lat="-20.304408" lon="57.614024"><ele>204.7</ele></trkpt>
<trkpt lat="-20.304393" lon="57.614332"><ele>205.9</ele></trkpt>
<trkpt lat="-20.304378" lon="57.614641"><ele>207.2</ele></trkpt>
<trkpt lat="-20.304365" lon="57.614950"><ele>208.4</ele></trkpt>
<trkpt lat="-20.304352" lon="57.615260"><ele>209.7</ele></trkpt>
<trkpt lat="-20.304341" lon="57.615570"><ele>211.0</ele></trkpt>
<trkpt lat="-20.304331" lon="57.615880"><ele>212.2</ele></trkpt>
<trkpt lat="-20.304322" lon="57.616191"><ele>213.5</ele></trkpt>
<trkpt lat="-20.304314" lon="57.616502"><ele>214.7</ele></trkpt>
<trkpt lat="-20.304308" lon="57.616814"><ele>216.0</ele></trkpt>
<trkpt lat="-20.304302" lon="57.617126"><ele>217.3</ele></trkpt>
<trkpt lat="-20.304297" lon="57.617439"><ele>218.5</ele></trkpt>
<trkpt lat="-20.304294" lon="57.617752"><ele>219.8</ele></trkpt>
<trkpt lat="-20.304291" lon="57.618065"><ele>221.0</ele></trkpt>
<trkpt lat="-20.304290" lon="57.618379"><ele>222.2</ele></trkpt>
<trkpt lat="-20.304290" lon="57.618693"><ele>223.5</ele></trkpt>
<trkpt lat="-20.304291" lon="57.619008"><ele>224.7</ele></trkpt>
<trkpt lat="-20.304293" lon="57.619323"><ele>225.9</ele></trkpt>
<trkpt lat="-20.304296" lon="57.619638"><ele>227.1</ele></trkpt>
<trkpt lat="-20.304300" lon="57.619954"><ele>228.3</ele></trkpt>
<trkpt lat="-20.304306" lon="57.620270"><ele>229.5</ele></trkpt>
<trkpt lat="-20.304312" lon="57.620586"><ele>230.7</ele></trkpt>
<trkpt lat="-20.304320" lon="57.620903"><ele>231.9</ele></trkpt>
<trkpt lat="-20.304328" lon="57.621221"><ele>233.1</ele></trkpt>
<trkpt lat="-20.304338" lon="57.621538"><ele>234.2</ele></trkpt>
<trkpt lat="-20.304349" lon="57.621856"><ele>235.4</ele></trkpt>
<trkpt lat="-20.304361" lon="57.622175"><ele>236.5</ele></trkpt>
<trkpt lat="-20.304374" lon="57.622494"><ele>237.6</ele></trkpt>
<trkpt lat="-20.304388" lon="57.622813"><ele>238.8</ele></trkpt>
<trkpt lat="-20.304403" lon="57.623132"><ele>239.9</ele></trkpt>
<trkpt lat="-20.304419" lon="57.623452"><ele>241.0</ele></trkpt>
<trkpt lat="-20.304437" lon="57.623773"><ele>242.0</ele></trkpt>
<trkpt lat="-20.304455" lon="57.624093"><ele>243.1</ele></trkpt>
<trkpt lat="-20.304475" lon="57.624414"><ele>244.1</ele></trkpt>
<trkpt lat="-20.304496" lon="57.624735"><ele>245.2</ele></trkpt>
<trkpt lat="-20.304517" lon="57.625057"><ele>246.2</ele></trkpt>
<trkpt lat="-20.304540" lon="57.625379"><ele>247.2</ele></trkpt>
<trkpt lat="-20.304564" lon="57.625701"><ele>248.2</ele></trkpt>
<trkpt lat="-20.304589" lon="57.626024"><ele>249.2</ele></trkpt>
<trkpt lat="-20.304615" lon="57.626347"><ele>250.1</ele></trkpt>
<trkpt lat="-20.304643" lon="57.626670"><ele>251.1</ele></trkpt>
<trkpt lat="-20.304671" lon="57.626994"><ele>252.0</ele></trkpt>
<trkpt lat="-20.304700" lon="57.627318"><ele>252.9</ele></trkpt>
<trkpt lat="-20.304731" lon="57.627642"><ele>253.8</ele></trkpt>
<trkpt lat="-20.304763" lon="57.627967"><ele>254.7</ele></trkpt>
<trkpt lat="-20.304795" lon="57.628292"><ele>255.5</ele></trkpt>
<trkpt lat="-20.304829" lon="57.628617"><ele>256.4</ele></trkpt>
<trkpt lat="-20.304864" lon="57.628943"><ele>257.2</ele></trkpt>
<trkpt lat="-20.304900" lon="57.629269"><ele>258.0</ele></trkpt>
<trkpt lat="-20.304937" lon="57.629595"><ele>258.7</ele></trkpt>
<trkpt lat="-20.304975" lon="57.629921"><ele>259.5</ele></trkpt>
<trkpt lat="-20.305014" lon="57.630248"><ele>260.2</ele></trkpt>
<trkpt lat="-20.305055" lon="57.630575"><ele>260.9</ele></trkpt>
<trkpt lat="-20.305096" lon="57.630902"><ele>261.6</ele></trkpt>
<trkpt lat="-20.305138" lon="57.631230"><ele>262.3</ele></trkpt>
<trkpt lat="-20.305182" lon="57.631558"><ele>262.9</ele></trkpt>
<trkpt lat="-20.305227" lon="57.631886"><ele>263.5</ele></trkpt>
<trkpt lat="-20.305272" lon="57.632214"><ele>264.1</ele></trkpt>
<trkpt lat="-20.305319" lon="57.632543"><ele>264.7</ele></trkpt>
<trkpt lat="-20.305367" lon="57.632872"><ele>265.2</ele></trkpt>
<trkpt lat="-20.305416" lon="57.633201"><ele>265.8</ele></trkpt>
<trkpt lat="-20.305466" lon="57.633531"><ele>266.3</ele></trkpt>
<trkpt lat="-20.305517" lon="57.633860"><ele>266.7</ele></trkpt>
<trkpt lat="-20.305569" lon="57.634190"><ele>267.2</ele></trkpt>
<trkpt lat="-20.305622" lon="57.634521"><ele>267.6</ele></trkpt>
<trkpt lat="-20.305676" lon="57.634851"><ele>268.0</ele></trkpt>
<trkpt lat="-20.305732" lon="57.635182"><ele>268.4</ele></trkpt>
<trkpt lat="-20.305788" lon="57.635513"><ele>268.7</ele></trkpt>
<trkpt lat="-20.305846" lon="57.635844"><ele>269.0</ele></trkpt>
<trkpt lat="-20.305904" lon="57.636176"><ele>269.3</ele></trkpt>
<trkpt lat="-20.305964" lon="57.636508"><ele>269.6</ele></trkpt>
<trkpt lat="-20.306024" lon="57.636840"><ele>269.8</ele></trkpt>
<trkpt lat="-20.306086" lon="57.637172"><ele>270.0</ele></trkpt>
<trkpt lat="-20.306149" lon="57.637504"><ele>270.2</ele></trkpt>
<trkpt lat="-20.306213" lon="57.637837"><ele>270.4</ele></trkpt>
<trkpt lat="-20.306277" lon="57.638170"><ele>270.5</ele></trkpt>
<trkpt lat="-20.306343" lon="57.638503"><ele>270.6</ele></trkpt>
<trkpt lat="-20.306410" lon="57.638836"><ele>270.7</ele></trkpt>
<trkpt lat="-20.306478" lon="57.639169"><ele>270.7</ele></trkpt>
<trkpt lat="-20.306547" lon="57.639503"><ele>270.8</ele></trkpt>
<trkpt lat="-20.306617" lon="57.639837"><ele>270.8</ele></trkpt>
<trkpt lat="-20.306688" lon="57.640171"><ele>270.7</ele></trkpt>
<trkpt lat="-20.306761" lon="57.640505"><ele>270.7</ele></trkpt>
<trkpt lat="-20.306834" lon="57.640840"><ele>270.6</ele></trkpt>
<trkpt lat="-20.306908" lon="57.641174"><ele>270.4</ele></trkpt>
<trkpt lat="-20.306983" lon="57.641509"><ele>270.3</ele></trkpt>
<trkpt lat="-20.307060" lon="57.641844"><ele>270.1</ele></trkpt>
<trkpt lat="-20.307137" lon="57.642180"><ele>269.9</ele></trkpt>
<trkpt lat="-20.307215" lon="57.642515"><ele>269.7</ele></trkpt>
<trkpt lat="-20.307295" lon="57.642851"><ele>269.4</ele></trkpt>
<trkpt lat="-20.307375" lon="57.643186"><ele>269.1</ele></trkpt>
<trkpt lat="-20.307457" lon="57.643522"><ele>268.8</ele></trkpt>
<trkpt lat="-20.307539" lon="57.643858"><ele>268.4</ele></trkpt>
<trkpt lat="-20.307623" lon="57.644194"><ele>268.1</ele></trkpt>
<trkpt lat="-20.307707" lon="57.644531"><ele>267.7</ele></trkpt>
<trkpt lat="-20.307793" lon="57.644867"><ele>267.2</ele></trkpt>
<trkpt lat="-20.307879" lon="57.645204"><ele>266.8</ele></trkpt>
<trkpt lat="-20.307967" lon="57.645541"><ele>266.3</ele></trkpt>
<trkpt lat="-20.308055" lon="57.645878"><ele>265.7</ele></trkpt>
<trkpt lat="-20.308145" lon="57.646215"><ele>265.2</ele></trkpt>
<trkpt lat="-20.308235" lon="57.646552"><ele>264.6</ele></trkpt>
<trkpt lat="-20.308327" lon="57.646890"><ele>264.0</ele></trkpt>
<trkpt lat="-20.308419" lon="57.647227"><ele>263.4</ele></trkpt>
<trkpt lat="-20.308513" lon="57.647565"><ele>262.7</ele></trkpt>
<trkpt lat="-20.308607" lon="57.647902"><ele>262.0</ele></trkpt>
<trkpt lat="-20.308703" lon="57.648240"><ele>261.3</ele></trkpt>
<trkpt lat="-20.308799" lon="57.648578"><ele>260.6</ele></trkpt>
<trkpt lat="-20.308897" lon="57.648916"><ele>259.8</ele></trkpt>
<trkpt lat="-20.308995" lon="57.649255"><ele>259.0</ele></trkpt>
<trkpt lat="-20.309095" lon="57.649593"><ele>258.2</ele></trkpt>
<trkpt lat="-20.309195" lon="57.649931"><ele>257.3</ele></trkpt>
<trkpt lat="-20.309297" lon="57.650270"><ele>256.5</ele></trkpt>
<trkpt lat="-20.309399" lon="57.650608"><ele>255.5</ele></trkpt>
<trkpt lat="-20.309503" lon="57.650947"><ele>254.6</ele></trkpt>
<trkpt lat="-20.309607" lon="57.651286"><ele>253.7</ele></trkpt>
<trkpt lat="-20.309712" lon="57.651625"><ele>252.7</ele></trkpt>
<trkpt lat="-20.309819" lon="57.651964"><ele>251.7</ele></trkpt>
<trkpt lat="-20.309926" lon="57.652303"><ele>250.6</ele></trkpt>
<trkpt lat="-20.310034" lon="57.652642"><ele>249.6</ele></trkpt>
<trkpt lat="-20.310143" lon="57.652981"><ele>248.5</ele></trkpt>
<trkpt lat="-20.310253" lon="57.653321"><ele>247.4</ele></trkpt>
<trkpt lat="-20.310364" lon="57.653660"><ele>246.3</ele></trkpt>
<trkpt lat="-20.310476" lon="57.653999"><ele>245.1</ele></trkpt>
<trkpt lat="-20.310589" lon="57.654339"><ele>243.9</ele></trkpt>
<trkpt lat="-20.310703" lon="57.654678"><ele>242.8</ele></trkpt>
<trkpt lat="-20.310818" lon="57.655018"><ele>241.5</ele></trkpt>
<trkpt lat="-20.310934" lon="57.655358"><ele>240.3</ele></trkpt>
<trkpt lat="-20.311051" lon="57.655697"><ele>239.0</ele></trkpt>
<trkpt lat="-20.311168" lon="57.656037"><ele>237.7</ele></trkpt>
<trkpt lat="-20.311287" lon="57.656377"><ele>236.4</ele></trkpt>
<trkpt lat="-20.311406" lon="57.656717"><ele>235.1</ele></trkpt>
<trkpt lat="-20.311527" lon="57.657056"><ele>233.7</ele></trkpt>
<trkpt lat="-20.311648" lon="57.657396"><ele>232.4</ele></trkpt>
<trkpt lat="-20.311770" lon="57.657736"><ele>231.0</ele></trkpt>
<trkpt lat="-20.311893" lon="57.658076"><ele>229.6</ele></trkpt>
<trkpt lat="-20.312018" lon="57.658416"><ele>228.1</ele></trkpt>
<trkpt lat="-20.312143" lon="57.658756"><ele>226.7</ele></trkpt>
<trkpt lat="-20.312268" lon="57.659096"><ele>225.2</ele></trkpt>
<trkpt lat="-20.312395" lon="57.659436"><ele>223.7</ele></trkpt>
<trkpt lat="-20.312523" lon="57.659776"><ele>222.2</ele></trkpt>
<trkpt lat="-20.312651" lon="57.660116"><ele>220.7</ele></trkpt>
<trkpt lat="-20.312781" lon="57.660456"><ele>219.2</ele></trkpt>
<trkpt lat="-20.312911" lon="57.660796"><ele>217.6</ele></trkpt>
<trkpt lat="-20.313043" lon="57.661136"><ele>216.1</ele></trkpt>
<trkpt lat="-20.313175" lon="57.661476"><ele>214.5</ele></trkpt>
<trkpt lat="-20.313308" lon="57.661816"><ele>212.9</ele></trkpt>
<trkpt lat="-20.313442" lon="57.662156"><ele>211.3</ele></trkpt>
<trkpt lat="-20.313576" lon="57.662496"><ele>209.7</ele></trkpt>
<trkpt lat="-20.313712" lon="57.662836"><ele>208.0</ele></trkpt>
<trkpt lat="-20.313848" lon="57.663176"><ele>206.4</ele></trkpt>
<trkpt lat="-20.313986" lon="57.663515"><ele>204.7</ele></trkpt>
<trkpt lat="-20.314124" lon="57.663855"><ele>203.0</ele></trkpt>
<trkpt lat="-20.314263" lon="57.664195"><ele>201.3</ele></trkpt>
<trkpt lat="-20.314403" lon="57.664535"><ele>199.6</ele></trkpt>
<trkpt lat="-20.314544" lon="57.664875"><ele>197.9</ele></trkpt>
<trkpt lat="-20.314685" lon="57.665214"><ele>196.2</ele></trkpt>
<trkpt lat="-20.314828" lon="57.665554"><ele>194.5</ele></trkpt>
<trkpt lat="-20.314971" lon="57.665893"><ele>192.7</ele></trkpt>
<trkpt lat="-20.315115" lon="57.666233"><ele>191.0</ele></trkpt>
<trkpt lat="-20.315260" lon="57.666572"><ele>189.2</ele></trkpt>
<trkpt lat="-20.315406" lon="57.666912"><ele>187.5</ele></trkpt>
<trkpt lat="-20.315552" lon="57.667251"><ele>185.7</ele></trkpt>
<trkpt lat="-20.315700" lon="57.667590"><ele>183.9</ele></trkpt>
<trkpt lat="-20.315848" lon="57.667930"><ele>182.2</ele></trkpt>
<trkpt lat="-20.315997" lon="57.668269"><ele>180.4</ele></trkpt>
<trkpt lat="-20.316147" lon="57.668608"><ele>178.6</ele></trkpt>
<trkpt lat="-20.316297" lon="57.668947"><ele>176.8</ele></trkpt>
<trkpt lat="-20.316449" lon="57.669285"><ele>175.0</ele></trkpt>
<trkpt lat="-20.316601" lon="57.669624"><ele>173.2</ele></trkpt>
<trkpt lat="-20.316754" lon="57.669963"><ele>171.4</ele></trkpt>
<trkpt lat="-20.316908" lon="57.670302"><ele>169.5</ele></trkpt>
<trkpt lat="-20.317063" lon="57.670640"><ele>167.7</ele></trkpt>
<trkpt lat="-20.317218" lon="57.670978"><ele>165.9</ele></trkpt>
<trkpt lat="-20.317374" lon="57.671317"><ele>164.1</ele></trkpt>
<trkpt lat="-20.317531" lon="57.671655"><ele>162.3</ele></trkpt>
<trkpt lat="-20.317689" lon="57.671993"><ele>160.5</ele></trkpt>
<trkpt lat="-20.317847" lon="57.672331"><ele>158.6</ele></trkpt>
<trkpt lat="-20.318006" lon="57.672669"><ele>156.8</ele></trkpt>
<trkpt lat="-20.318166" lon="57.673006"><ele>155.0</ele></trkpt>
<trkpt lat="-20.318327" lon="57.673344"><ele>153.2</ele></trkpt>
<trkpt lat="-20.318489" lon="57.673681"><ele>151.4</ele></trkpt>
<trkpt lat="-20.318651" lon="57.674019"><ele>149.6</ele></trkpt>
<trkpt lat="-20.318814" lon="57.674356"><ele>147.8</ele></trkpt>
<trkpt lat="-20.318977" lon="57.674693"><ele>146.0</ele></trkpt>
<trkpt lat="-20.319142" lon="57.675030"><ele>144.2</ele></trkpt>
<trkpt lat="-20.319307" lon="57.675367"><ele>142.4</ele></trkpt>
<trkpt lat="-20.319473" lon="57.675703"><ele>140.6</ele></trkpt>
<trkpt lat="-20.319640" lon="57.676040"><ele>138.8</ele></trkpt>
<trkpt lat="-20.319807" lon="57.676376"><ele>137.1</ele></trkpt>
<trkpt lat="-20.319975" lon="57.676712"><ele>135.3</ele></trkpt>
<trkpt lat="-20.320144" lon="57.677048"><ele>133.5</ele></trkpt>
<trkpt lat="-20.320313" lon="57.677384"><ele>131.8</ele></trkpt>
<trkpt lat="-20.320483" lon="57.677720"><ele>130.1</ele></trkpt>
<trkpt lat="-20.320654" lon="57.678055"><ele>128.3</ele></trkpt>
<trkpt lat="-20.320826" lon="57.678391"><ele>126.6</ele></trkpt>
<trkpt lat="-20.320998" lon="57.678726"><ele>124.9</ele></trkpt>
<trkpt lat="-20.321171" lon="57.679061"><ele>123.2</ele></trkpt>
<trkpt lat="-20.321344" lon="57.679396"><ele>121.5</ele></trkpt>
<trkpt lat="-20.321519" lon="57.679730"><ele>119.8</ele></trkpt>
<trkpt lat="-20.321694" lon="57.680065"><ele>118.1</ele></trkpt>
<trkpt lat="-20.321869" lon="57.680399"><ele>116.5</ele></trkpt>
<trkpt lat="-20.322045" lon="57.680733"><ele>114.8</ele></trkpt>
<trkpt lat="-20.322222" lon="57.681067"><ele>113.2</ele></trkpt>
<trkpt lat="-20.322400" lon="57.681400"><ele>111.6</ele></trkpt>
<trkpt lat="-20.322578" lon="57.681734"><ele>110.0</ele></trkpt>
<trkpt lat="-20.322757" lon="57.682067"><ele>108.4</ele></trkpt>
<trkpt lat="-20.322936" lon="57.682400"><ele>106.8</ele></trkpt>
<trkpt lat="-20.323117" lon="57.682733"><ele>105.2</ele></trkpt>
<trkpt lat="-20.323297" lon="57.683065"><ele>103.7</ele></trkpt>
<trkpt lat="-20.323479" lon="57.683397"><ele>102.1</ele></trkpt>
<trkpt lat="-20.323661" lon="57.683730"><ele>100.6</ele></trkpt>
<trkpt lat="-20.323843" lon="57.684061"><ele>99.1</ele></trkpt>
<trkpt lat="-20.324026" lon="57.684393"><ele>97.6</ele></trkpt>
<trkpt lat="-20.324210" lon="57.684724"><ele>96.1</ele></trkpt>
<trkpt lat="-20.324395" lon="57.685056"><ele>94.7</ele></trkpt>
<trkpt lat="-20.324580" lon="57.685387"><ele>93.2</ele></trkpt>
<trkpt lat="-20.324765" lon="57.685717"><ele>91.8</ele></trkpt>
<trkpt lat="-20.324952" lon="57.686048"><ele>90.4</ele></trkpt>
<trkpt lat="-20.325138" lon="57.686378"><ele>89.0</ele></trkpt>
<trkpt lat="-20.325326" lon="57.686708"><ele>87.7</ele></trkpt>
<trkpt lat="-20.325514" lon="57.687038"><ele>86.3</ele></trkpt>
<trkpt lat="-20.325702" lon="57.687367"><ele>85.0</ele></trkpt>
<trkpt lat="-20.325891" lon="57.687696"><ele>83.7</ele></trkpt>
<trkpt lat="-20.326081" lon="57.688025"><ele>82.4</ele></trkpt>
<trkpt lat="-20.326271" lon="57.688354"><ele>81.1</ele></trkpt>
<trkpt lat="-20.326462" lon="57.688682"><ele>79.8</ele></trkpt>
<trkpt lat="-20.326653" lon="57.689010"><ele>78.6</ele></trkpt>
<trkpt lat="-20.326845" lon="57.689338"><ele>77.4</ele></trkpt>
<trkpt lat="-20.327037" lon="57.689665"><ele>76.2</ele></trkpt>
<trkpt lat="-20.327230" lon="57.689992"><ele>75.0</ele></trkpt>
<trkpt lat="-20.327424" lon="57.690319"><ele>73.9</ele></trkpt>
<trkpt lat="-20.327618" lon="57.690646"><ele>72.8</ele></trkpt>
<trkpt lat="-20.327812" lon="57.690972"><ele>71.7</ele></trkpt>
<trkpt lat="-20.328007" lon="57.691298"><ele>70.6</ele></trkpt>
<trkpt lat="-20.328203" lon="57.691624"><ele>69.5</ele></trkpt>
<trkpt lat="-20.328399" lon="57.691950"><ele>68.5</ele></trkpt>
<trkpt lat="-20.328595" lon="57.692275"><ele>67.4</ele></trkpt>
<trkpt lat="-20.328792" lon="57.692600"><ele>66.5</ele></trkpt>
<trkpt lat="-20.328990" lon="57.692924"><ele>65.5</ele></trkpt>
<trkpt lat="-20.329187" lon="57.693248"><ele>64.5</ele></trkpt>
<trkpt lat="-20.329386" lon="57.693572"><ele>63.6</ele></trkpt>
<trkpt lat="-20.329585" lon="57.693896"><ele>62.7</ele></trkpt>
<trkpt lat="-20.329784" lon="57.694219"><ele>61.8</ele></trkpt>
<trkpt lat="-20.329984" lon="57.694542"><ele>60.9</ele></trkpt>
<trkpt lat="-20.330184" lon="57.694864"><ele>60.1</ele></trkpt>
<trkpt lat="-20.330385" lon="57.695186"><ele>59.3</ele></trkpt>
<trkpt lat="-20.330586" lon="57.695508"><ele>58.5</ele></trkpt>
<trkpt lat="-20.330788" lon="57.695830"><ele>57.7</ele></trkpt>
<trkpt lat="-20.330990" lon="57.696151"><ele>56.9</ele></trkpt>
<trkpt lat="-20.331192" lon="57.696472"><ele>56.2</ele></trkpt>
<trkpt lat="-20.331395" lon="57.696792"><ele>55.5</ele></trkpt>
<trkpt lat="-20.331599" lon="57.697112"><ele>54.8</ele></trkpt>
<trkpt lat="-20.331802" lon="57.697432"><ele>54.2</ele></trkpt>
<trkpt lat="-20.332007" lon="57.697752"><ele>53.5</ele></trkpt>
<trkpt lat="-20.332211" lon="57.698071"><ele>52.9</ele></trkpt>
<trkpt lat="-20.332416" lon="57.698389"><ele>52.3</ele></trkpt>
<trkpt lat="-20.332622" lon="57.698708"><ele>51.7</ele></trkpt>
<trkpt lat="-20.332827" lon="57.699026"><ele>51.2</ele></trkpt>
<trkpt lat="-20.333033" lon="57.699343"><ele>50.7</ele></trkpt>
<trkpt lat="-20.333240" lon="57.699660"><ele>50.1</ele></trkpt>
<trkpt lat="-20.333447" lon="57.699977"><ele>49.7</ele></trkpt>
<trkpt lat="-20.333654" lon="57.700294"><ele>49.2</ele></trkpt>
<trkpt lat="-20.333862" lon="57.700610"><ele>48.8</ele></trkpt>
<trkpt lat="-20.334070" lon="57.700925"><ele>48.3</ele></trkpt>
<trkpt lat="-20.334278" lon="57.701241"><ele>47.9</ele></trkpt>
<trkpt lat="-20.334487" lon="57.701555"><ele>47.6</ele></trkpt>
<trkpt lat="-20.334696" lon="57.701870"><ele>47.2</ele></trkpt>
<trkpt lat="-20.334905" lon="57.702184"><ele>46.9</ele></trkpt>
<trkpt lat="-20.335115" lon="57.702497"><ele>46.6</ele></trkpt>
<trkpt lat="-20.335325" lon="57.702811"><ele>46.3</ele></trkpt>
<trkpt lat="-20.335536" lon="57.703124"><ele>46.0</ele></trkpt>
<trkpt lat="-20.335746" lon="57.703436"><ele>45.7</ele></trkpt>
<trkpt lat="-20.335957" lon="57.703748"><ele>45.5</ele></trkpt>
<trkpt lat="-20.336169" lon="57.704059"><ele>45.3</ele></trkpt>
<trkpt lat="-20.336380" lon="57.704371"><ele>45.1</ele></trkpt>
<trkpt lat="-20.336592" lon="57.704681"><ele>44.9</ele></trkpt>
<trkpt lat="-20.336805" lon="57.704992"><ele>44.8</ele></trkpt>
<trkpt lat="-20.337017" lon="57.705301"><ele>44.6</ele></trkpt>
<trkpt lat="-20.337230" lon="57.705611"><ele>44.5</ele></trkpt>
<trkpt lat="-20.337443" lon="57.705920"><ele>44.4</ele></trkpt>
<trkpt lat="-20.337656" lon="57.706228"><ele>44.3</ele></trkpt>
<trkpt lat="-20.337870" lon="57.706536"><ele>44.3</ele></trkpt>
<trkpt lat="-20.338084" lon="57.706844"><ele>44.2</ele></trkpt>
<trkpt lat="-20.338298" lon="57.707151"><ele>44.2</ele></trkpt>
<trkpt lat="-20.338512" lon="57.707458"><ele>44.2</ele></trkpt>
<trkpt lat="-20.338727" lon="57.707764"><ele>44.2</ele></trkpt>
<trkpt lat="-20.338942" lon="57.708070"><ele>44.2</ele></trkpt>
<trkpt lat="-20.339157" lon="57.708376"><ele>44.2</ele></trkpt>
<trkpt lat="-20.339372" lon="57.708680"><ele>44.3</ele></trkpt>
<trkpt lat="-20.339588" lon="57.708985"><ele>44.3</ele></trkpt>
<trkpt lat="-20.339803" lon="57.709289"><ele>44.4</ele></trkpt>
<trkpt lat="-20.340019" lon="57.709592"><ele>44.5</ele></trkpt>
<trkpt lat="-20.340236" lon="57.709895"><ele>44.6</ele></trkpt>
<trkpt lat="-20.340452" lon="57.710198"><ele>44.7</ele></trkpt>
<trkpt lat="-20.340669" lon="57.710500"><ele>44.9</ele></trkpt>
<trkpt lat="-20.340885" lon="57.710802"><ele>45.0</ele></trkpt>
<trkpt lat="-20.341102" lon="57.711103"><ele>45.2</ele></trkpt>
<trkpt lat="-20.341319" lon="57.711403"><ele>45.3</ele></trkpt>
<trkpt lat="-20.341537" lon="57.711703"><ele>45.5</ele></trkpt>
<trkpt lat="-20.341754" lon="57.712003"><ele>45.7</ele></trkpt>
<trkpt lat="-20.341972" lon="57.712302"><ele>45.9</ele></trkpt>
<trkpt lat="-20.342190" lon="57.712601"><ele>46.1</ele></trkpt>
<trkpt lat="-20.342408" lon="57.712899"><ele>46.3</ele></trkpt>
<trkpt lat="-20.342626" lon="57.713196"><ele>46.6</ele></trkpt>
<trkpt lat="-20.342844" lon="57.713493"><ele>46.8</ele></trkpt>
<trkpt lat="-20.343062" lon="57.713790"><ele>47.1</ele></trkpt>
<trkpt lat="-20.343281" lon="57.714086"><ele>47.3</ele></trkpt>
<trkpt lat="-20.343499" lon="57.714382"><ele>47.6</ele></trkpt>
<trkpt lat="-20.343718" lon="57.714677"><ele>47.8</ele></trkpt>
<trkpt lat="-20.343937" lon="57.714971"><ele>48.1</ele></trkpt>
<trkpt lat="-20.344156" lon="57.715265"><ele>48.4</ele></trkpt>
<trkpt lat="-20.344375" lon="57.715558"><ele>48.7</ele></trkpt>
<trkpt lat="-20.344594" lon="57.715851"><ele>49.0</ele></trkpt>
<trkpt lat="-20.344814" lon="57.716144"><ele>49.3</ele></trkpt>
<trkpt lat="-20.345033" lon="57.716436"><ele>49.6</ele></trkpt>
<trkpt lat="-20.345252" lon="57.716727"><ele>49.9</ele></trkpt>
<trkpt lat="-20.345472" lon="57.717018"><ele>50.2</ele></trkpt>
<trkpt lat="-20.345691" lon="57.717308"><ele>50.5</ele></trkpt>
<trkpt lat="-20.345911" lon="57.717598"><ele>50.9</ele></trkpt>
<trkpt lat="-20.346131" lon="57.717887"><ele>51.2</ele></trkpt>
<trkpt lat="-20.346351" lon="57.718175"><ele>51.5</ele></trkpt>
<trkpt lat="-20.346570" lon="57.718463"><ele>51.8</ele></trkpt>
<trkpt lat="-20.346790" lon="57.718751"><ele>52.2</ele></trkpt>
<trkpt lat="-20.347010" lon="57.719038"><ele>52.5</ele></trkpt>
<trkpt lat="-20.347230" lon="57.719324"><ele>52.8</ele></trkpt>
<trkpt lat="-20.347450" lon="57.719610"><ele>53.1</ele></trkpt>
<trkpt lat="-20.347670" lon="57.719895"><ele>53.5</ele></trkpt>
<trkpt lat="-20.347890" lon="57.720179"><ele>53.8</ele></trkpt>
<trkpt lat="-20.348110" lon="57.720463"><ele>54.1</ele></trkpt>
<trkpt lat="-20.348330" lon="57.720747"><ele>54.4</ele></trkpt>
<trkpt lat="-20.348550" lon="57.721030"><ele>54.7</ele></trkpt>
<trkpt lat="-20.348770" lon="57.721312"><ele>55.0</ele></trkpt>
<trkpt lat="-20.348990" lon="57.721594"><ele>55.3</ele></trkpt>
<trkpt lat="-20.349210" lon="57.721875"><ele>55.6</ele></trkpt>
<trkpt lat="-20.349430" lon="57.722155"><ele>55.9</ele></trkpt>
<trkpt lat="-20.349650" lon="57.722435"><ele>56.2</ele></trkpt>
<trkpt lat="-20.349870" lon="57.722715"><ele>56.5</ele></trkpt>
<trkpt lat="-20.350089" lon="57.722993"><ele>56.8</ele></trkpt>
<trkpt lat="-20.350309" lon="57.723272"><ele>57.1</ele></trkpt>
<trkpt lat="-20.350529" lon="57.723549"><ele>57.3</ele></trkpt>
<trkpt lat="-20.350749" lon="57.723826"><ele>57.6</ele></trkpt>
<trkpt lat="-20.350968" lon="57.724102"><ele>57.9</ele></trkpt>
<trkpt lat="-20.351188" lon="57.724378"><ele>58.1</ele></trkpt>
<trkpt lat="-20.351407" lon="57.724653"><ele>58.3</ele></trkpt>
<trkpt lat="-20.351627" lon="57.724928"><ele>58.5</ele></trkpt>
<trkpt lat="-20.351846" lon="57.725202"><ele>58.8</ele></trkpt>
<trkpt lat="-20.352065" lon="57.725475"><ele>59.0</ele></trkpt>
<trkpt lat="-20.352284" lon="57.725748"><ele>59.2</ele></trkpt>
<trkpt lat="-20.352503" lon="57.726020"><ele>59.3</ele></trkpt>
<trkpt lat="-20.352722" lon="57.726291"><ele>59.5</ele></trkpt>
<trkpt lat="-20.352941" lon="57.726562"><ele>59.7</ele></trkpt>
<trkpt lat="-20.353160" lon="57.726832"><ele>59.8</ele></trkpt>
<trkpt lat="-20.353379" lon="57.727101"><ele>59.9</ele></trkpt>
<trkpt lat="-20.353597" lon="57.727370"><ele>60.1</ele></trkpt>
<trkpt lat="-20.353815" lon="57.727638"><ele>60.2</ele></trkpt>
<trkpt lat="-20.354033" lon="57.727906"><ele>60.3</ele></trkpt>
<trkpt lat="-20.354252" lon="57.728173"><ele>60.3</ele></trkpt>
<trkpt lat="-20.354469" lon="57.728439"><ele>60.4</ele></trkpt>
<trkpt lat="-20.354687" lon="57.728705"><ele>60.5</ele></trkpt>
<trkpt lat="-20.354905" lon="57.728970"><ele>60.5</ele></trkpt>
<trkpt lat="-20.355122" lon="57.729234"><ele>60.5</ele></trkpt>
<trkpt lat="-20.355339" lon="57.729498"><ele>60.5</ele></trkpt>
<trkpt lat="-20.355556" lon="57.729761"><ele>60.5</ele></trkpt>
<trkpt lat="-20.355773" lon="57.730023"><ele>60.5</ele></trkpt>
<trkpt lat="-20.355990" lon="57.730285"><ele>60.4</ele></trkpt>
<trkpt lat="-20.356207" lon="57.730546"><ele>60.3</ele></trkpt>
<trkpt lat="-20.356423" lon="57.730806"><ele>60.3</ele></trkpt>
<trkpt lat="-20.356639" lon="57.731066"><ele>60.2</ele></trkpt>
<trkpt lat="-20.356855" lon="57.731325"><ele>60.0</ele></trkpt>
<trkpt lat="-20.357071" lon="57.731583"><ele>59.9</ele></trkpt>
<trkpt lat="-20.357286" lon="57.731841"><ele>59.7</ele></trkpt>
<trkpt lat="-20.357501" lon="57.732098"><ele>59.6</ele></trkpt>
<trkpt lat="-20.357716" lon="57.732354"><ele>59.4</ele></trkpt>
<trkpt lat="-20.357931" lon="57.732610"><ele>59.2</ele></trkpt>
<trkpt lat="-20.358146" lon="57.732865"><ele>58.9</ele></trkpt>
<trkpt lat="-20.358360" lon="57.733119"><ele>58.7</ele></trkpt>
<trkpt lat="-20.358574" lon="57.733373"><ele>58.4</ele></trkpt>
<trkpt lat="-20.358788" lon="57.733626"><ele>58.1</ele></trkpt>
<trkpt lat="-20.359001" lon="57.733878"><ele>57.8</ele></trkpt>
<trkpt lat="-20.359214" lon="57.734129"><ele>57.4</ele></trkpt>
<trkpt lat="-20.359427" lon="57.734380"><ele>57.1</ele></trkpt>
<trkpt lat="-20.359640" lon="57.734630"><ele>56.7</ele></trkpt>
<trkpt lat="-20.359853" lon="57.734879"><ele>56.3</ele></trkpt>
<trkpt lat="-20.360065" lon="57.735128"><ele>55.9</ele></trkpt>
<trkpt lat="-20.360276" lon="57.735376"><ele>55.4</ele></trkpt>
<trkpt lat="-20.360488" lon="57.735623"><ele>55.0</ele></trkpt>
<trkpt lat="-20.360699" lon="57.735870"><ele>54.5</ele></trkpt>
<trkpt lat="-20.360910" lon="57.736116"><ele>53.9</ele></trkpt>
<trkpt lat="-20.361121" lon="57.736361"><ele>53.4</ele></trkpt>
<trkpt lat="-20.361331" lon="57.736605"><ele>52.9</ele></trkpt>
<trkpt lat="-20.361541" lon="57.736849"><ele>52.3</ele></trkpt>
<trkpt lat="-20.361751" lon="57.737092"><ele>51.7</ele></trkpt>
<trkpt lat="-20.361960" lon="57.737334"><ele>51.0</ele></trkpt>
<trkpt lat="-20.362169" lon="57.737575"><ele>50.4</ele></trkpt>
<trkpt lat="-20.362377" lon="57.737816"><ele>49.7</ele></trkpt>
<trkpt lat="-20.362586" lon="57.738056"><ele>49.0</ele></trkpt>
<trkpt lat="-20.362794" lon="57.738295"><ele>48.3</ele></trkpt>
<trkpt lat="-20.363001" lon="57.738534"><ele>47.6</ele></trkpt>
<trkpt lat="-20.363208" lon="57.738772"><ele>46.8</ele></trkpt>
<trkpt lat="-20.363415" lon="57.739009"><ele>46.0</ele></trkpt>
<trkpt lat="-20.363621" lon="57.739245"><ele>45.2</ele></trkpt>
<trkpt lat="-20.363827" lon="57.739481"><ele>44.4</ele></trkpt>
<trkpt lat="-20.364033" lon="57.739716"><ele>43.5</ele></trkpt>
<trkpt lat="-20.364238" lon="57.739950"><ele>42.6</ele></trkpt>
<trkpt lat="-20.364443" lon="57.740183"><ele>41.7</ele></trkpt>
<trkpt lat="-20.364648" lon="57.740416"><ele>40.8</ele></trkpt>
<trkpt lat="-20.364852" lon="57.740648"><ele>39.9</ele></trkpt>
<trkpt lat="-20.365055" lon="57.740879"><ele>38.9</ele></trkpt>
<trkpt lat="-20.365258" lon="57.741109"><ele>37.9</ele></trkpt>
<trkpt lat="-20.365461" lon="57.741339"><ele>36.9</ele></trkpt>
<trkpt lat="-20.365664" lon="57.741568"><ele>35.8</ele></trkpt>
<trkpt lat="-20.365865" lon="57.741796"><ele>34.8</ele></trkpt>
<trkpt lat="-20.366067" lon="57.742023"><ele>33.7</ele></trkpt>
<trkpt lat="-20.366268" lon="57.742249"><ele>32.6</ele></trkpt>
<trkpt lat="-20.366468" lon="57.742475"><ele>31.5</ele></trkpt>
<trkpt lat="-20.366669" lon="57.742700"><ele>30.3</ele></trkpt>
<trkpt lat="-20.366868" lon="57.742924"><ele>29.1</ele></trkpt>
<trkpt lat="-20.367067" lon="57.743148"><ele>27.9</ele></trkpt>
<trkpt lat="-20.367266" lon="57.743371"><ele>26.7</ele></trkpt>
<trkpt lat="-20.367464" lon="57.743593"><ele>25.5</ele></trkpt>
<trkpt lat="-20.367662" lon="57.743814"><ele>24.2</ele></trkpt>
<trkpt lat="-20.367860" lon="57.744034"><ele>22.9</ele></trkpt>
<trkpt lat="-20.368056" lon="57.744254"><ele>21.6</ele></trkpt>
<trkpt lat="-20.368253" lon="57.744472"><ele>20.3</ele></trkpt>
<trkpt lat="-20.368448" lon="57.744690"><ele>19.0</ele></trkpt>
<trkpt lat="-20.368644" lon="57.744907"><ele>17.6</ele></trkpt>
<trkpt lat="-20.368838" lon="57.745124"><ele>16.2</ele></trkpt>
<trkpt lat="-20.369033" lon="57.745340"><ele>14.8</ele></trkpt>
<trkpt lat="-20.369227" lon="57.745554"><ele>13.4</ele></trkpt>
<trkpt lat="-20.369420" lon="57.745768"><ele>12.0</ele></trkpt>
<trkpt lat="-20.369612" lon="57.745982"><ele>10.5</ele></trkpt>
<trkpt lat="-20.369805" lon="57.746194"><ele>9.0</ele></trkpt>
<trkpt lat="-20.369996" lon="57.746406"><ele>7.6</ele></trkpt>
<trkpt lat="-20.370187" lon="57.746617"><ele>6.0</ele></trkpt>
<trkpt lat="-20.370378" lon="57.746827"><ele>4.5</ele></trkpt>
<trkpt lat="-20.370568" lon="57.747036"><ele>3.0</ele></trkpt>
<trkpt lat="-20.370757" lon="57.747244"><ele>3.0</ele></trkpt>
<trkpt lat="-20.370946" lon="57.747452"><ele>3.0</ele></trkpt>
<trkpt lat="-20.371135" lon="57.747659"><ele>3.0</ele></trkpt>
<trkpt lat="-20.371322" lon="57.747865"><ele>3.0</ele></trkpt>
<trkpt lat="-20.371509" lon="57.748070"><ele>3.0</ele></trkpt>
<trkpt lat="-20.371696" lon="57.748274"><ele>3.0</ele></trkpt>
<trkpt lat="-20.371882" lon="57.748478"><ele>3.0</ele></trkpt>
<trkpt lat="-20.372067" lon="57.748680"><ele>3.0</ele></trkpt>
<trkpt lat="-20.372252" lon="57.748882"><ele>3.0</ele></trkpt>
<trkpt lat="-20.372436" lon="57.749083"><ele>3.0</ele></trkpt>
<trkpt lat="-20.372620" lon="57.749284"><ele>3.0</ele></trkpt>
<trkpt lat="-20.372803" lon="57.749483"><ele>3.0</ele></trkpt>
<trkpt lat="-20.372985" lon="57.749682"><ele>3.0</ele></trkpt>
<trkpt lat="-20.373167" lon="57.749880"><ele>3.0</ele></trkpt>
<trkpt lat="-20.373348" lon="57.750076"><ele>3.0</ele></trkpt>
<trkpt lat="-20.373529" lon="57.750273"><ele>3.0</ele></trkpt>
<trkpt lat="-20.373709" lon="57.750468"><ele>3.0</ele></trkpt>
<trkpt lat="-20.373888" lon="57.750662"><ele>3.0</ele></trkpt>
<trkpt lat="-20.374067" lon="57.750856"><ele>3.0</ele></trkpt>
<trkpt lat="-20.374245" lon="57.751049"><ele>3.0</ele></trkpt>
<trkpt lat="-20.374422" lon="57.751241"><ele>3.0</ele></trkpt>
<trkpt lat="-20.374599" lon="57.751432"><ele>3.0</ele></trkpt>
<trkpt lat="-20.374775" lon="57.751622"><ele>3.0</ele></trkpt>
<trkpt lat="-20.374950" lon="57.751812"><ele>3.0</ele></trkpt>
<trkpt lat="-20.375125" lon="57.752000"><ele>3.0</ele></trkpt>
<trkpt lat="-20.375299" lon="57.752188"><ele>3.0</ele></trkpt>
<trkpt lat="-20.375472" lon="57.752375"><ele>3.0</ele></trkpt>
<trkpt lat="-20.375645" lon="57.752561"><ele>3.0</ele></trkpt>
<trkpt lat="-20.375817" lon="57.752746"><ele>3.0</ele></trkpt>
<trkpt lat="-20.375988" lon="57.752930"><ele>3.0</ele></trkpt>
<trkpt lat="-20.376159" lon="57.753114"><ele>3.0</ele></trkpt>
<trkpt lat="-20.376328" lon="57.753297"><ele>3.0</ele></trkpt>
<trkpt lat="-20.376498" lon="57.753478"><ele>3.0</ele></trkpt>
<trkpt lat="-20.376666" lon="57.753659"><ele>3.0</ele></trkpt>
<trkpt lat="-20.376834" lon="57.753839"><ele>3.0</ele></trkpt>
<trkpt lat="-20.377001" lon="57.754019"><ele>3.0</ele></trkpt>
<trkpt lat="-20.377167" lon="57.754197"><ele>3.0</ele></trkpt>
<trkpt lat="-20.377333" lon="57.754375"><ele>3.0</ele></trkpt>
<trkpt lat="-20.377498" lon="57.754551"><ele>3.0</ele></trkpt>
<trkpt lat="-20.377662" lon="57.754727"><ele>3.0</ele></trkpt>
<trkpt lat="-20.377825" lon="57.754902"><ele>3.0</ele></trkpt>
<trkpt lat="-20.377988" lon="57.755076"><ele>3.0</ele></trkpt>
<trkpt lat="-20.378150" lon="57.755249"><ele>3.0</ele></trkpt>
<trkpt lat="-20.378311" lon="57.755422"><ele>3.0</ele></trkpt>
<trkpt lat="-20.378472" lon="57.755593"><ele>3.0</ele></trkpt>
<trkpt lat="-20.378632" lon="57.755764"><ele>3.0</ele></trkpt>
<trkpt lat="-20.378790" lon="57.755933"><ele>3.0</ele></trkpt>
<trkpt lat="-20.378949" lon="57.756102"><ele>3.0</ele></trkpt>
<trkpt lat="-20.379106" lon="57.756270"><ele>3.0</ele></trkpt>
<trkpt lat="-20.379263" lon="57.756437"><ele>3.0</ele></trkpt>
<trkpt lat="-20.379419" lon="57.756603"><ele>3.0</ele></trkpt>
<trkpt lat="-20.379574" lon="57.756769"><ele>3.0</ele></trkpt>
<trkpt lat="-20.379728" lon="57.756933"><ele>3.0</ele></trkpt>
<trkpt lat="-20.379882" lon="57.757097"><ele>3.0</ele></trkpt>
<trkpt lat="-20.380034" lon="57.757260"><ele>3.0</ele></trkpt>
<trkpt lat="-20.380186" lon="57.757421"><ele>3.0</ele></trkpt>
<trkpt lat="-20.380337" lon="57.757582"><ele>3.0</ele></trkpt>
<trkpt lat="-20.380488" lon="57.757742"><ele>3.0</ele></trkpt>
<trkpt lat="-20.380637" lon="57.757902"><ele>3.0</ele></trkpt>
<trkpt lat="-20.380786" lon="57.758060"><ele>3.0</ele></trkpt>
<trkpt lat="-20.380934" lon="57.758217"><ele>3.0</ele></trkpt>
<trkpt lat="-20.381081" lon="57.758374"><ele>3.0</ele></trkpt>
<trkpt lat="-20.381227" lon="57.758529"><ele>3.0</ele></trkpt>
<trkpt lat="-20.381373" lon="57.758684"><ele>3.0</ele></trkpt>
<trkpt lat="-20.381517" lon="57.758838"><ele>3.0</ele></trkpt>
<trkpt lat="-20.381661" lon="57.758991"><ele>3.0</ele></trkpt>
<trkpt lat="-20.381804" lon="57.759143"><ele>3.0</ele></trkpt>
<trkpt lat="-20.381946" lon="57.759294"><ele>3.0</ele></trkpt>
<trkpt lat="-20.382088" lon="57.759444"><ele>3.0</ele></trkpt>
<trkpt lat="-20.382228" lon="57.759594"><ele>3.0</ele></trkpt>
<trkpt lat="-20.382368" lon="57.759742"><ele>3.0</ele></trkpt>
<trkpt lat="-20.382506" lon="57.759890"><ele>3.0</ele></trkpt>
<trkpt lat="-20.382644" lon="57.760037"><ele>3.0</ele></trkpt>
<trkpt lat="-20.382781" lon="57.760182"><ele>3.0</ele></trkpt>
<trkpt lat="-20.382917" lon="57.760327"><ele>3.0</ele></trkpt>
<trkpt lat="-20.383053" lon="57.760471"><ele>3.0</ele></trkpt>
<trkpt lat="-20.383187" lon="57.760614"><ele>3.0</ele></trkpt>
<trkpt lat="-20.383321" lon="57.760757"><ele>3.0</ele></trkpt>
<trkpt lat="-20.383453" lon="57.760898"><ele>3.0</ele></trkpt>
<trkpt lat="-20.383585" lon="57.761038"><ele>3.0</ele></trkpt>
<trkpt lat="-20.383716" lon="57.761178"><ele>3.0</ele></trkpt>
<trkpt lat="-20.383846" lon="57.761316"><ele>3.0</ele></trkpt>
<trkpt lat="-20.383975" lon="57.761454"><ele>3.0</ele></trkpt>
<trkpt lat="-20.384104" lon="57.761591"><ele>3.0</ele></trkpt>
<trkpt lat="-20.384231" lon="57.761727"><ele>3.0</ele></trkpt>
<trkpt lat="-20.384357" lon="57.761862"><ele>3.0</ele></trkpt>
<trkpt lat="-20.384483" lon="57.761996"><ele>3.0</ele></trkpt>
<trkpt lat="-20.384608" lon="57.762129"><ele>3.0</ele></trkpt>
<trkpt lat="-20.384731" lon="57.762261"><ele>3.0</ele></trkpt>
<trkpt lat="-20.384854" lon="57.762393"><ele>3.0</ele></trkpt>
<trkpt lat="-20.384976" lon="57.762523"><ele>3.0</ele></trkpt>
<trkpt lat="-20.385097" lon="57.762653"><ele>3.0</ele></trkpt>
<trkpt lat="-20.385217" lon="57.762781"><ele>3.0</ele></trkpt>
<trkpt lat="-20.385336" lon="57.762909"><ele>3.0</ele></trkpt>
<trkpt lat="-20.385455" lon="57.763036"><ele>3.0</ele></trkpt>
<trkpt lat="-20.385572" lon="57.763161"><ele>3.0</ele></trkpt>
<trkpt lat="-20.385688" lon="57.763286"><ele>3.0</ele></trkpt>
<trkpt lat="-20.385804" lon="57.763410"><ele>3.0</ele></trkpt>
<trkpt lat="-20.385918" lon="57.763534"><ele>3.0</ele></trkpt>
<trkpt lat="-20.386032" lon="57.763656"><ele>3.0</ele></trkpt>
<trkpt lat="-20.386144" lon="57.763777"><ele>3.0</ele></trkpt>
<trkpt lat="-20.386256" lon="57.763897"><ele>3.0</ele></trkpt>
<trkpt lat="-20.386367" lon="57.764017"><ele>3.0</ele></trkpt>
<trkpt lat="-20.386477" lon="57.764135"><ele>3.0</ele></trkpt>
<trkpt lat="-20.386585" lon="57.764253"><ele>3.0</ele></trkpt>
<trkpt lat="-20.386693" lon="57.764370"><ele>3.0</ele></trkpt>
<trkpt lat="-20.386800" lon="57.764485"><ele>3.0</ele></trkpt>
<trkpt lat="-20.386906" lon="57.764600"><ele>3.0</ele></trkpt>
<trkpt lat="-20.387011" lon="57.764714"><ele>3.0</ele></trkpt>
<trkpt lat="-20.387115" lon="57.764827"><ele>3.0</ele></trkpt>
<trkpt lat="-20.387218" lon="57.764939"><ele>3.0</ele></trkpt>
<trkpt lat="-20.387320" lon="57.765050"><ele>3.0</ele></trkpt>
<trkpt lat="-20.387421" lon="57.765161"><ele>3.0</ele></trkpt>
<trkpt lat="-20.387521" lon="57.765270"><ele>3.0</ele></trkpt>
<trkpt lat="-20.387620" lon="57.765378"><ele>3.0</ele></trkpt>
<trkpt lat="-20.387719" lon="57.765486"><ele>3.0</ele></trkpt>
<trkpt lat="-20.387816" lon="57.765592"><ele>3.0</ele></trkpt>
<trkpt lat="-20.387912" lon="57.765698"><ele>3.0</ele></trkpt>
<trkpt lat="-20.388007" lon="57.765803"><ele>3.0</ele></trkpt>
<trkpt lat="-20.388101" lon="57.765907"><ele>3.0</ele></trkpt>
<trkpt lat="-20.388194" lon="57.766009"><ele>3.0</ele></trkpt>
<trkpt lat="-20.388287" lon="57.766111"><ele>3.0</ele></trkpt>
<trkpt lat="-20.388378" lon="57.766212"><ele>3.0</ele></trkpt>
<trkpt lat="-20.388468" lon="57.766312"><ele>3.0</ele></trkpt>
<trkpt lat="-20.388557" lon="57.766412"><ele>3.0</ele></trkpt>
<trkpt lat="-20.388645" lon="57.766510"><ele>3.0</ele></trkpt>
<trkpt lat="-20.388732" lon="57.766607"><ele>3.0</ele></trkpt>
<trkpt lat="-20.388819" lon="57.766704"><ele>3.0</ele></trkpt>
<trkpt lat="-20.388904" lon="57.766799"><ele>3.0</ele></trkpt>
<trkpt lat="-20.388988" lon="57.766893"><ele>3.0</ele></trkpt>
<trkpt lat="-20.389071" lon="57.766987"><ele>3.0</ele></trkpt>
<trkpt lat="-20.389153" lon="57.767080"><ele>3.0</ele></trkpt>
<trkpt lat="-20.389234" lon="57.767171"><ele>3.0</ele></trkpt>
<trkpt lat="-20.389314" lon="57.767262"><ele>3.0</ele></trkpt>
<trkpt lat="-20.389393" lon="57.767352"><ele>3.0</ele></trkpt>
<trkpt lat="-20.389471" lon="57.767441"><ele>3.0</ele></trkpt>
<trkpt lat="-20.389548" lon="57.767529"><ele>3.0</ele></trkpt>
<trkpt lat="-20.389624" lon="57.767616"><ele>3.0</ele></trkpt>
<trkpt lat="-20.389699" lon="57.767702"><ele>3.0</ele></trkpt>
<trkpt lat="-20.389773" lon="57.767788"><ele>3.0</ele></trkpt>
<trkpt lat="-20.389846" lon="57.767872"><ele>3.0</ele></trkpt>
<trkpt lat="-20.389917" lon="57.767955"><ele>3.0</ele></trkpt>
<trkpt lat="-20.389988" lon="57.768038"><ele>3.0</ele></trkpt>
<trkpt lat="-20.390058" lon="57.768119"><ele>3.0</ele></trkpt>
<trkpt lat="-20.390127" lon="57.768200"><ele>3.0</ele></trkpt>
<trkpt lat="-20.390194" lon="57.768280"><ele>3.0</ele></trkpt>
<trkpt lat="-20.390261" lon="57.768358"><ele>3.0</ele></trkpt>
<trkpt lat="-20.390326" lon="57.768436"><ele>3.0</ele></trkpt>
<trkpt lat="-20.390391" lon="57.768513"><ele>3.0</ele></trkpt>
<trkpt lat="-20.390454" lon="57.768589"><ele>3.0</ele></trkpt>
<trkpt lat="-20.390517" lon="57.768664"><ele>3.0</ele></trkpt>
<trkpt lat="-20.390578" lon="57.768738"><ele>3.0</ele></trkpt>
<trkpt lat="-20.390638" lon="57.768811"><ele>3.0</ele></trkpt>
<trkpt lat="-20.390697" lon="57.768884"><ele>3.0</ele></trkpt>
<trkpt lat="-20.390755" lon="57.768955"><ele>3.0</ele></trkpt>
<trkpt lat="-20.390812" lon="57.769025"><ele>3.0</ele></trkpt>
<trkpt lat="-20.390868" lon="57.769095"><ele>3.0</ele></trkpt>
<trkpt lat="-20.390923" lon="57.769163"><ele>3.0</ele></trkpt>
<trkpt lat="-20.390977" lon="57.769231"><ele>3.0</ele></trkpt>
<trkpt lat="-20.391030" lon="57.769298"><ele>3.0</ele></trkpt>
<trkpt lat="-20.391082" lon="57.769363"><ele>3.0</ele></trkpt>
<trkpt lat="-20.391132" lon="57.769428"><ele>3.0</ele></trkpt>
<trkpt lat="-20.391182" lon="57.769492"><ele>3.0</ele></trkpt>
<trkpt lat="-20.391231" lon="57.769555"><ele>3.0</ele></trkpt>
<trkpt lat="-20.391278" lon="57.769617"><ele>3.0</ele></trkpt>
<trkpt lat="-20.391324" lon="57.769678"><ele>3.0</ele></trkpt>
<trkpt lat="-20.391370" lon="57.769738"><ele>3.0</ele></trkpt>
<trkpt lat="-20.391414" lon="57.769798"><ele>3.0</ele></trkpt>
<trkpt lat="-20.391457" lon="57.769856"><ele>3.0</ele></trkpt>
<trkpt lat="-20.391499" lon="57.769913"><ele>3.0</ele></trkpt>
<trkpt lat="-20.391540" lon="57.769970"><ele>3.0</ele></trkpt>
<trkpt lat="-20.391580" lon="57.770025"><ele>3.0</ele></trkpt>
<trkpt lat="-20.391619" lon="57.770080"><ele>3.0</ele></trkpt>
<trkpt lat="-20.391657" lon="57.770134"><ele>3.0</ele></trkpt>
<trkpt lat="-20.391693" lon="57.770187"><ele>3.0</ele></trkpt>
<trkpt lat="-20.391729" lon="57.770238"><ele>3.0</ele></trkpt>
<trkpt lat="-20.391763" lon="57.770289"><ele>3.0</ele></trkpt>
<trkpt lat="-20.391797" lon="57.770339"><ele>3.0</ele></trkpt>
<trkpt lat="-20.391829" lon="57.770388"><ele>3.0</ele></trkpt>
<trkpt lat="-20.391860" lon="57.770437"><ele>3.0</ele></trkpt>
<trkpt lat="-20.391890" lon="57.770484"><ele>3.0</ele></trkpt>
<trkpt lat="-20.391919" lon="57.770530"><ele>3.0</ele></trkpt>
<trkpt lat="-20.391947" lon="57.770576"><ele>3.0</ele></trkpt>
<trkpt lat="-20.391974" lon="57.770620"><ele>3.0</ele></trkpt>
<trkpt lat="-20.392000" lon="57.770664"><ele>3.0</ele></trkpt>
<trkpt lat="-20.392025" lon="57.770706"><ele>3.0</ele></trkpt>
<trkpt lat="-20.392048" lon="57.770748"><ele>3.0</ele></trkpt>
<trkpt lat="-20.392071" lon="57.770789"><ele>3.0</ele></trkpt>
<trkpt lat="-20.392092" lon="57.770829"><ele>3.0</ele></trkpt>
<trkpt lat="-20.392112" lon="57.770868"><ele>3.0</ele></trkpt>
<trkpt lat="-20.392132" lon="57.770906"><ele>3.0</ele></trkpt>
<trkpt lat="-20.392150" lon="57.770943"><ele>3.0</ele></trkpt>
<trkpt lat="-20.392167" lon="57.770979"><ele>3.0</ele></trkpt>
<trkpt lat="-20.392183" lon="57.771015"><ele>3.0</ele></trkpt>
<trkpt lat="-20.392197" lon="57.771049"><ele>3.0</ele></trkpt>
<trkpt lat="-20.392211" lon="57.771083"><ele>3.0</ele></trkpt>
<trkpt lat="-20.392224" lon="57.771115"><ele>3.0</ele></trkpt>
<trkpt lat="-20.392235" lon="57.771147"><ele>3.0</ele></trkpt>
<trkpt lat="-20.392246" lon="57.771178"><ele>3.0</ele></trkpt>
<trkpt lat="-20.392255" lon="57.771207"><ele>3.0</ele></trkpt>
<trkpt lat="-20.392263" lon="57.771236"><ele>3.0</ele></trkpt>
<trkpt lat="-20.392270" lon="57.771264"><ele>3.0</ele></trkpt>
<trkpt lat="-20.392276" lon="57.771291"><ele>3.0</ele></trkpt>
<trkpt lat="-20.392281" lon="57.771318"><ele>3.0</ele></trkpt>
<trkpt lat="-20.392285" lon="57.771343"><ele>3.0</ele></trkpt>
<trkpt lat="-20.392288" lon="57.771367"><ele>3.0</ele></trkpt>
<trkpt lat="-20.392290" lon="57.771391"><ele>3.0</ele></trkpt>
<trkpt lat="-20.392290" lon="57.771413"><ele>3.0</ele></trkpt>
<trkpt lat="-20.392289" lon="57.771435"><ele>3.0</ele></trkpt>
<trkpt lat="-20.392288" lon="57.771456"><ele>3.0</ele></trkpt>
<trkpt lat="-20.392285" lon="57.771476"><ele>3.0</ele></trkpt>
<trkpt lat="-20.392281" lon="57.771495"><ele>3.0</ele></trkpt>
<trkpt lat="-20.392276" lon="57.771513"><ele>3.0</ele></trkpt>
<trkpt lat="-20.392270" lon="57.771530"><ele>3.0</ele></trkpt>
<trkpt lat="-20.392263" lon="57.771546"><ele>3.0</ele></trkpt>
<trkpt lat="-20.392255" lon="57.771562"><ele>3.0</ele></trkpt>
<trkpt lat="-20.392245" lon="57.771576"><ele>3.0</ele></trkpt>
<trkpt lat="-20.392235" lon="57.771590"><ele>3.0</ele></trkpt>
<trkpt lat="-20.392223" lon="57.771602"><ele>3.0</ele></trkpt>
<trkpt lat="-20.392211" lon="57.771614"><ele>3.0</ele></trkpt>
<trkpt lat="-20.392197" lon="57.771625"><ele>3.0</ele></trkpt>
<trkpt lat="-20.392182" lon="57.771635"><ele>3.0</ele></trkpt>
<trkpt lat="-20.392166" lon="57.771644"><ele>3.0</ele></trkpt>
<trkpt lat="-20.392149" lon="57.771652"><ele>3.0</ele></trkpt>
<trkpt lat="-20.392131" lon="57.771659"><ele>3.0</ele></trkpt>
<trkpt lat="-20.392112" lon="57.771666"><ele>3.0</ele></trkpt>
<trkpt lat="-20.392091" lon="57.771671"><ele>3.0</ele></trkpt>
<trkpt lat="-20.392070" lon="57.771676"><ele>3.0</ele></trkpt>
<trkpt lat="-20.392047" lon="57.771680"><ele>3.0</ele></trkpt>
<trkpt lat="-20.392024" lon="57.771683"><ele>3.0</ele></trkpt>
<trkpt lat="-20.391999" lon="57.771684"><ele>3.0</ele></trkpt>
<trkpt lat="-20.391973" lon="57.771686"><ele>3.0</ele></trkpt>
<trkpt lat="-20.391946" lon="57.771686"><ele>3.0</ele></trkpt>
<trkpt lat="-20.391918" lon="57.771685"><ele>3.0</ele></trkpt>
<trkpt lat="-20.391889" lon="57.771683"><ele>3.0</ele></trkpt>
<trkpt lat="-20.391859" lon="57.771681"><ele>3.0</ele></trkpt>
<trkpt lat="-20.391828" lon="57.771678"><ele>3.0</ele></trkpt>
<trkpt lat="-20.391795" lon="57.771673"><ele>3.0</ele></trkpt>
<trkpt lat="-20.391762" lon="57.771668"><ele>3.0</ele></trkpt>
<trkpt lat="-20.391727" lon="57.771662"><ele>3.0</ele></trkpt>
<trkpt lat="-20.391692" lon="57.771656"><ele>3.0</ele></trkpt>
<trkpt lat="-20.391655" lon="57.771648"><ele>3.0</ele></trkpt>
<trkpt lat="-20.391617" lon="57.771639"><ele>3.0</ele></trkpt>
<trkpt lat="-20.391578" lon="57.771630"><ele>3.0</ele></trkpt>
<trkpt lat="-20.391538" lon="57.771619"><ele>3.0</ele></trkpt>
<trkpt lat="-20.391497" lon="57.771608"><ele>3.0</ele></trkpt>
<trkpt lat="-20.391455" lon="57.771596"><ele>3.0</ele></trkpt>
<trkpt lat="-20.391412" lon="57.771583"><ele>3.0</ele></trkpt>
<trkpt lat="-20.391368" lon="57.771569"><ele>3.0</ele></trkpt>
<trkpt lat="-20.391322" lon="57.771555"><ele>3.0</ele></trkpt>
<trkpt lat="-20.391276" lon="57.771539"><ele>3.0</ele></trkpt>
<trkpt lat="-20.391228" lon="57.771523"><ele>3.0</ele></trkpt>
<trkpt lat="-20.391180" lon="57.771506"><ele>3.0</ele></trkpt>
<trkpt lat="-20.391130" lon="57.771487"><ele>3.0</ele></trkpt>
<trkpt lat="-20.391080" lon="57.771469"><ele>3.0</ele></trkpt>
<trkpt lat="-20.391028" lon="57.771449"><ele>3.0</ele></trkpt>
<trkpt lat="-20.390975" lon="57.771428"><ele>3.0</ele></trkpt>
<trkpt lat="-20.390921" lon="57.771406"><ele>3.0</ele></trkpt>
<trkpt lat="-20.390866" lon="57.771384"><ele>3.0</ele></trkpt>
<trkpt lat="-20.390810" lon="57.771361"><ele>3.0</ele></trkpt>
<trkpt lat="-20.390753" lon="57.771337"><ele>3.0</ele></trkpt>
<trkpt lat="-20.390695" lon="57.771312"><ele>3.0</ele></trkpt>
<trkpt lat="-20.390635" lon="57.771286"><ele>3.0</ele></trkpt>
<trkpt lat="-20.390575" lon="57.771259"><ele>3.0</ele></trkpt>
<trkpt lat="-20.390514" lon="57.771232"><ele>3.0</ele></trkpt>
<trkpt lat="-20.390451" lon="57.771203"><ele>3.0</ele></trkpt>
<trkpt lat="-20.390388" lon="57.771174"><ele>3.0</ele></trkpt>
<trkpt lat="-20.390323" lon="57.771144"><ele>3.0</ele></trkpt>
<trkpt lat="-20.390258" lon="57.771113"><ele>3.0</ele></trkpt>
<trkpt lat="-20.390191" lon="57.771082"><ele>3.0</ele></trkpt>
<trkpt lat="-20.390124" lon="57.771049"><ele>3.0</ele></trkpt>
<trkpt lat="-20.390055" lon="57.771016"><ele>3.0</ele></trkpt>
<trkpt lat="-20.389985" lon="57.770981"><ele>3.0</ele></trkpt>
<trkpt lat="-20.389914" lon="57.770946"><ele>3.0</ele></trkpt>
<trkpt lat="-20.389842" lon="57.770910"><ele>3.0</ele></trkpt>
<trkpt lat="-20.389770" lon="57.770874"><ele>3.0</ele></trkpt>
<trkpt lat="-20.389696" lon="57.770836"><ele>3.0</ele></trkpt>
<trkpt lat="-20.389621" lon="57.770798"><ele>3.0</ele></trkpt>
<trkpt lat="-20.389545" lon="57.770759"><ele>3.0</ele></trkpt>
<trkpt lat="-20.389468" lon="57.770719"><ele>3.0</ele></trkpt>
<trkpt lat="-20.389390" lon="57.770678"><ele>3.0</ele></trkpt>
<trkpt lat="-20.389311" lon="57.770636"><ele>3.0</ele></trkpt>
<trkpt lat="-20.389231" lon="57.770594"><ele>3.0</ele></trkpt>
<trkpt lat="-20.389149" lon="57.770550"><ele>3.0</ele></trkpt>
<trkpt lat="-20.389067" lon="57.770506"><ele>3.0</ele></trkpt>
<trkpt lat="-20.388984" lon="57.770461"><ele>3.0</ele></trkpt>
<trkpt lat="-20.388900" lon="57.770415"><ele>3.0</ele></trkpt>
<trkpt lat="-20.388815" lon="57.770369"><ele>3.0</ele></trkpt>
<trkpt lat="-20.388729" lon="57.770322"><ele>3.0</ele></trkpt>
<trkpt lat="-20.388641" lon="57.770273"><ele>3.0</ele></trkpt>
<trkpt lat="-20.388553" lon="57.770224"><ele>3.0</ele></trkpt>
<trkpt lat="-20.388464" lon="57.770175"><ele>3.0</ele></trkpt>
<trkpt lat="-20.388374" lon="57.770124"><ele>3.0</ele></trkpt>
<trkpt lat="-20.388282" lon="57.770073"><ele>3.0</ele></trkpt>
<trkpt lat="-20.388190" lon="57.770020"><ele>3.0</ele></trkpt>
<trkpt lat="-20.388097" lon="57.769967"><ele>3.0</ele></trkpt>
<trkpt lat="-20.388003" lon="57.769914"><ele>3.0</ele></trkpt>
<trkpt lat="-20.387908" lon="57.769859"><ele>3.0</ele></trkpt>
<trkpt lat="-20.387811" lon="57.769804"><ele>3.0</ele></trkpt>
<trkpt lat="-20.387714" lon="57.769747"><ele>3.0</ele></trkpt>
<trkpt lat="-20.387616" lon="57.769690"><ele>3.0</ele></trkpt>
<trkpt lat="-20.387517" lon="57.769633"><ele>3.0</ele></trkpt>
<trkpt lat="-20.387417" lon="57.769574"><ele>3.0</ele></trkpt>
<trkpt lat="-20.387316" lon="57.769515"><ele>3.0</ele></trkpt>
<trkpt lat="-20.387213" lon="57.769455"><ele>3.0</ele></trkpt>
<trkpt lat="-20.387110" lon="57.769394"><ele>3.0</ele></trkpt>
<trkpt lat="-20.387006" lon="57.769332"><ele>3.0</ele></trkpt>
<trkpt lat="-20.386901" lon="57.769270"><ele>3.0</ele></trkpt>
<trkpt lat="-20.386795" lon="57.769206"><ele>3.0</ele></trkpt>
<trkpt lat="-20.386688" lon="57.769142"><ele>3.0</ele></trkpt>
<trkpt lat="-20.386581" lon="57.769078"><ele>3.0</ele></trkpt>
<trkpt lat="-20.386472" lon="57.769012"><ele>3.0</ele></trkpt>
<trkpt lat="-20.386362" lon="57.768946"><ele>3.0</ele></trkpt>
<trkpt lat="-20.386251" lon="57.768879"><ele>3.0</ele></trkpt>
<trkpt lat="-20.386139" lon="57.768811"><ele>3.0</ele></trkpt>
<trkpt lat="-20.386027" lon="57.768742"><ele>3.0</ele></trkpt>
<trkpt lat="-20.385913" lon="57.768673"><ele>3.0</ele></trkpt>
<trkpt lat="-20.385799" lon="57.768603"><ele>3.0</ele></trkpt>
<trkpt lat="-20.385683" lon="57.768532"><ele>3.0</ele></trkpt>
<trkpt lat="-20.385567" lon="57.768460"><ele>3.0</ele></trkpt>
<trkpt lat="-20.385449" lon="57.768388"><ele>3.0</ele></trkpt>
<trkpt lat="-20.385331" lon="57.768315"><ele>3.0</ele></trkpt>
<trkpt lat="-20.385212" lon="57.768241"><ele>3.0</ele></trkpt>
<trkpt lat="-20.385092" lon="57.768166"><ele>3.0</ele></trkpt>
<trkpt lat="-20.384971" lon="57.768091"><ele>3.0</ele></trkpt>
<trkpt lat="-20.384849" lon="57.768015"><ele>3.0</ele></trkpt>
<trkpt lat="-20.384726" lon="57.767938"><ele>3.0</ele></trkpt>
<trkpt lat="-20.384602" lon="57.767860"><ele>3.0</ele></trkpt>
<trkpt lat="-20.384477" lon="57.767782"><ele>3.0</ele></trkpt>
<trkpt lat="-20.384352" lon="57.767703"><ele>3.0</ele></trkpt>
<trkpt lat="-20.384225" lon="57.767623"><ele>3.0</ele></trkpt>
<trkpt lat="-20.384098" lon="57.767542"><ele>3.0</ele></trkpt>
<trkpt lat="-20.383970" lon="57.767461"><ele>3.0</ele></trkpt>
<trkpt lat="-20.383840" lon="57.767379"><ele>3.0</ele></trkpt>
<trkpt lat="-20.383710" lon="57.767296"><ele>3.0</ele></trkpt>
<trkpt lat="-20.383579" lon="57.767213"><ele>3.0</ele></trkpt>
<trkpt lat="-20.383447" lon="57.767129"><ele>3.0</ele></trkpt>
<trkpt lat="-20.383315" lon="57.767044"><ele>3.0</ele></trkpt>
<trkpt lat="-20.383181" lon="57.766958"><ele>3.0</ele></trkpt>
<trkpt lat="-20.383047" lon="57.766872"><ele>3.0</ele></trkpt>
<trkpt lat="-20.382911" lon="57.766785"><ele>3.0</ele></trkpt>
<trkpt lat="-20.382775" lon="57.766697"><ele>3.0</ele></trkpt>
<trkpt lat="-20.382638" lon="57.766609"><ele>3.0</ele></trkpt>
<trkpt lat="-20.382500" lon="57.766520"><ele>3.0</ele></trkpt>
<trkpt lat="-20.382361" lon="57.766430"><ele>3.0</ele></trkpt>
<trkpt lat="-20.382222" lon="57.766339"><ele>3.0</ele></trkpt>
<trkpt lat="-20.382081" lon="57.766248"><ele>3.0</ele></trkpt>
<trkpt lat="-20.381940" lon="57.766156"><ele>3.0</ele></trkpt>
<trkpt lat="-20.381798" lon="57.766063"><ele>3.0</ele></trkpt>
<trkpt lat="-20.381655" lon="57.765970"><ele>3.0</ele></trkpt>
<trkpt lat="-20.381511" lon="57.765876"><ele>3.0</ele></trkpt>
<trkpt lat="-20.381366" lon="57.765781"><ele>3.0</ele></trkpt>
<trkpt lat="-20.381221" lon="57.765686"><ele>3.0</ele></trkpt>
<trkpt lat="-20.381074" lon="57.765590"><ele>3.0</ele></trkpt>
<trkpt lat="-20.380927" lon="57.765493"><ele>3.0</ele></trkpt>
<trkpt lat="-20.380779" lon="57.765395"><ele>3.0</ele></trkpt>
<trkpt lat="-20.380631" lon="57.765297"><ele>3.0</ele></trkpt>
<trkpt lat="-20.380481" lon="57.765198"><ele>3.0</ele></trkpt>
<trkpt lat="-20.380331" lon="57.765099"><ele>3.0</ele></trkpt>
<trkpt lat="-20.380179" lon="57.764999"><ele>3.0</ele></trkpt>
<trkpt lat="-20.380027" lon="57.764898"><ele>3.0</ele></trkpt>
<trkpt lat="-20.379875" lon="57.764796"><ele>3.0</ele></trkpt>
<trkpt lat="-20.379721" lon="57.764694"><ele>3.0</ele></trkpt>
<trkpt lat="-20.379567" lon="57.764591"><ele>3.0</ele></trkpt>
<trkpt lat="-20.379412" lon="57.764488"><ele>3.0</ele></trkpt>
<trkpt lat="-20.379256" lon="57.764384"><ele>3.0</ele></trkpt>
<trkpt lat="-20.379099" lon="57.764279"><ele>3.0</ele></trkpt>
<trkpt lat="-20.378942" lon="57.764174"><ele>3.0</ele></trkpt>
<trkpt lat="-20.378783" lon="57.764067"><ele>3.0</ele></trkpt>
<trkpt lat="-20.378624" lon="57.763961"><ele>3.0</ele></trkpt>
<trkpt lat="-20.378465" lon="57.763853"><ele>3.0</ele></trkpt>
<trkpt lat="-20.378304" lon="57.763745"><ele>3.0</ele></trkpt>
<trkpt lat="-20.378143" lon="57.763637"><ele>3.0</ele></trkpt>
<trkpt lat="-20.377981" lon="57.763527"><ele>3.0</ele></trkpt>
<trkpt lat="-20.377818" lon="57.763417"><ele>3.0</ele></trkpt>
<trkpt lat="-20.377655" lon="57.763307"><ele>3.0</ele></trkpt>
<trkpt lat="-20.377491" lon="57.763196"><ele>3.0</ele></trkpt>
<trkpt lat="-20.377326" lon="57.763084"><ele>3.0</ele></trkpt>
<trkpt lat="-20.377160" lon="57.762971"><ele>3.0</ele></trkpt>
<trkpt lat="-20.376994" lon="57.762858"><ele>3.0</ele></trkpt>
<trkpt lat="-20.376826" lon="57.762744"><ele>3.0</ele></trkpt>
<trkpt lat="-20.376659" lon="57.762630"><ele>3.0</ele></trkpt>
<trkpt lat="-20.376490" lon="57.762515"><ele>3.0</ele></trkpt>
<trkpt lat="-20.376321" lon="57.762400"><ele>3.0</ele></trkpt>
<trkpt lat="-20.376151" lon="57.762284"><ele>3.0</ele></trkpt>
<trkpt lat="-20.375980" lon="57.762167"><ele>3.0</ele></trkpt>
<trkpt lat="-20.375809" lon="57.762049"><ele>3.0</ele></trkpt>
<trkpt lat="-20.375637" lon="57.761931"><ele>3.0</ele></trkpt>
<trkpt lat="-20.375464" lon="57.761813"><ele>3.0</ele></trkpt>
<trkpt lat="-20.375291" lon="57.761694"><ele>3.0</ele></trkpt>
<trkpt lat="-20.375117" lon="57.761574"><ele>3.0</ele></trkpt>
<trkpt lat="-20.374942" lon="57.761454"><ele>3.0</ele></trkpt>
<trkpt lat="-20.374767" lon="57.761333"><ele>3.0</ele></trkpt>
<trkpt lat="-20.374591" lon="57.761211"><ele>3.0</ele></trkpt>
<trkpt lat="-20.374414" lon="57.761089"><ele>3.0</ele></trkpt>
<trkpt lat="-20.374237" lon="57.760966"><ele>3.0</ele></trkpt>
<trkpt lat="-20.374059" lon="57.760843"><ele>3.0</ele></trkpt>
<trkpt lat="-20.373880" lon="57.760719"><ele>3.0</ele></trkpt>
<trkpt lat="-20.373701" lon="57.760595"><ele>3.0</ele></trkpt>
<trkpt lat="-20.373521" lon="57.760470"><ele>3.0</ele></trkpt>
<trkpt lat="-20.373340" lon="57.760344"><ele>3.0</ele></trkpt>
<trkpt lat="-20.373159" lon="57.760218"><ele>3.0</ele></trkpt>
<trkpt lat="-20.372977" lon="57.760091"><ele>3.0</ele></trkpt>
<trkpt lat="-20.372795" lon="57.759964"><ele>3.0</ele></trkpt>
<trkpt lat="-20.372612" lon="57.759836"><ele>3.0</ele></trkpt>
<trkpt lat="-20.372428" lon="57.759708"><ele>3.0</ele></trkpt>
<trkpt lat="-20.372244" lon="57.759579"><ele>3.0</ele></trkpt>
<trkpt lat="-20.372059" lon="57.759449"><ele>3.0</ele></trkpt>
<trkpt lat="-20.371874" lon="57.759319"><ele>3.0</ele></trkpt>
<trkpt lat="-20.371688" lon="57.759188"><ele>3.0</ele></trkpt>
<trkpt lat="-20.371501" lon="57.759057"><ele>3.0</ele></trkpt>
<trkpt lat="-20.371314" lon="57.758926"><ele>3.0</ele></trkpt>
<trkpt lat="-20.371126" lon="57.758793"><ele>3.0</ele></trkpt>
<trkpt lat="-20.370938" lon="57.758661"><ele>3.0</ele></trkpt>
<trkpt lat="-20.370749" lon="57.758527"><ele>3.0</ele></trkpt>
<trkpt lat="-20.370560" lon="57.758394"><ele>3.0</ele></trkpt>
<trkpt lat="-20.370369" lon="57.758259"><ele>3.0</ele></trkpt>
<trkpt lat="-20.370179" lon="57.758124"><ele>3.0</ele></trkpt>
<trkpt lat="-20.369988" lon="57.757989"><ele>3.0</ele></trkpt>
<trkpt lat="-20.369796" lon="57.757853"><ele>3.0</ele></trkpt>
<trkpt lat="-20.369604" lon="57.757717"><ele>3.0</ele></trkpt>
<trkpt lat="-20.369411" lon="57.757580"><ele>3.0</ele></trkpt>
<trkpt lat="-20.369218" lon="57.757442"><ele>3.0</ele></trkpt>
<trkpt lat="-20.369024" lon="57.757304"><ele>3.0</ele></trkpt>
<trkpt lat="-20.368830" lon="57.757166"><ele>3.0</ele></trkpt>
<trkpt lat="-20.368635" lon="57.757027"><ele>3.0</ele></trkpt>
<trkpt lat="-20.368440" lon="57.756887"><ele>3.0</ele></trkpt>
<trkpt lat="-20.368244" lon="57.756748"><ele>3.0</ele></trkpt>
<trkpt lat="-20.368048" lon="57.756607"><ele>3.0</ele></trkpt>
<trkpt lat="-20.367851" lon="57.756466"><ele>3.0</ele></trkpt>
<trkpt lat="-20.367653" lon="57.756325"><ele>3.0</ele></trkpt>
<trkpt lat="-20.367456" lon="57.756183"><ele>3.0</ele></trkpt>
<trkpt lat="-20.367257" lon="57.756040"><ele>3.0</ele></trkpt>
<trkpt lat="-20.367059" lon="57.755897"><ele>3.0</ele></trkpt>
<trkpt lat="-20.366859" lon="57.755754"><ele>3.0</ele></trkpt>
<trkpt lat="-20.366660" lon="57.755610"><ele>3.0</ele></trkpt>
<trkpt lat="-20.366460" lon="57.755466"><ele>3.0</ele></trkpt>
<trkpt lat="-20.366259" lon="57.755321"><ele>3.0</ele></trkpt>
<trkpt lat="-20.366058" lon="57.755176"><ele>3.0</ele></trkpt>
<trkpt lat="-20.365856" lon="57.755030"><ele>3.0</ele></trkpt>
<trkpt lat="-20.365655" lon="57.754884"><ele>3.0</ele></trkpt>
<trkpt lat="-20.365452" lon="57.754738"><ele>3.0</ele></trkpt>
<trkpt lat="-20.365249" lon="57.754591"><ele>3.0</ele></trkpt>
<trkpt lat="-20.365046" lon="57.754443"><ele>3.0</ele></trkpt>
<trkpt lat="-20.364843" lon="57.754295"><ele>3.0</ele></trkpt>
<trkpt lat="-20.364639" lon="57.754147"><ele>3.0</ele></trkpt>
<trkpt lat="-20.364434" lon="57.753998"><ele>3.0</ele></trkpt>
<trkpt lat="-20.364229" lon="57.753848"><ele>3.0</ele></trkpt>
<trkpt lat="-20.364024" lon="57.753699"><ele>3.0</ele></trkpt>
<trkpt lat="-20.363818" lon="57.753549"><ele>3.0</ele></trkpt>
<trkpt lat="-20.363612" lon="57.753398"><ele>3.0</ele></trkpt>
<trkpt lat="-20.363406" lon="57.753247"><ele>3.0</ele></trkpt>
<trkpt lat="-20.363199" lon="57.753096"><ele>3.0</ele></trkpt>
<trkpt lat="-20.362992" lon="57.752944"><ele>3.0</ele></trkpt>
<trkpt lat="-20.362784" lon="57.752791"><ele>3.0</ele></trkpt>
<trkpt lat="-20.362576" lon="57.752639"><ele>3.0</ele></trkpt>
<trkpt lat="-20.362368" lon="57.752486"><ele>3.0</ele></trkpt>
<trkpt lat="-20.362160" lon="57.752332"><ele>3.0</ele></trkpt>
<trkpt lat="-20.361951" lon="57.752178"><ele>3.0</ele></trkpt>
<trkpt lat="-20.361741" lon="57.752024"><ele>3.0</ele></trkpt>
<trkpt lat="-20.361532" lon="57.751869"><ele>3.0</ele></trkpt>
<trkpt lat="-20.361322" lon="57.751714"><ele>3.0</ele></trkpt>
<trkpt lat="-20.361111" lon="57.751558"><ele>3.0</ele></trkpt>
<trkpt lat="-20.360901" lon="57.751403"><ele>3.0</ele></trkpt>
<trkpt lat="-20.360690" lon="57.751246"><ele>3.0</ele></trkpt>
<trkpt lat="-20.360479" lon="57.751090"><ele>3.0</ele></trkpt>
<trkpt lat="-20.360267" lon="57.750932"><ele>3.0</ele></trkpt>
<trkpt lat="-20.360055" lon="57.750775"><ele>3.0</ele></trkpt>
<trkpt lat="-20.359843" lon="57.750617"><ele>3.0</ele></trkpt>
<trkpt lat="-20.359631" lon="57.750459"><ele>3.0</ele></trkpt>
<trkpt lat="-20.359418" lon="57.750300"><ele>3.0</ele></trkpt>
<trkpt lat="-20.359205" lon="57.750141"><ele>3.0</ele></trkpt>
<trkpt lat="-20.358992" lon="57.749982"><ele>3.0</ele></trkpt>
<trkpt lat="-20.358778" lon="57.749822"><ele>3.0</ele></trkpt>
<trkpt lat="-20.358564" lon="57.749662"><ele>3.0</ele></trkpt>
<trkpt lat="-20.358350" lon="57.749502"><ele>3.0</ele></trkpt>
<trkpt lat="-20.358136" lon="57.749341"><ele>3.0</ele></trkpt>
<trkpt lat="-20.357922" lon="57.749180"><ele>3.0</ele></trkpt>
<trkpt lat="-20.357707" lon="57.749019"><ele>3.0</ele></trkpt>
<trkpt lat="-20.357492" lon="57.748857"><ele>3.0</ele></trkpt>
<trkpt lat="-20.357276" lon="57.748695"><ele>3.0</ele></trkpt>
<trkpt lat="-20.357061" lon="57.748532"><ele>3.0</ele></trkpt>
<trkpt lat="-20.356845" lon="57.748370"><ele>3.0</ele></trkpt>
<trkpt lat="-20.356629" lon="57.748207"><ele>3.0</ele></trkpt>
<trkpt lat="-20.356413" lon="57.748043"><ele>3.0</ele></trkpt>
<trkpt lat="-20.356197" lon="57.747879"><ele>3.0</ele></trkpt>
<trkpt lat="-20.355980" lon="57.747715"><ele>3.0</ele></trkpt>
<trkpt lat="-20.355764" lon="57.747551"><ele>3.0</ele></trkpt>
<trkpt lat="-20.355547" lon="57.747386"><ele>3.0</ele></trkpt>
<trkpt lat="-20.355330" lon="57.747221"><ele>3.0</ele></trkpt>
<trkpt lat="-20.355113" lon="57.747056"><ele>3.0</ele></trkpt>
<trkpt lat="-20.354895" lon="57.746890"><ele>3.0</ele></trkpt>
<trkpt lat="-20.354678" lon="57.746724"><ele>3.0</ele></trkpt>
<trkpt lat="-20.354460" lon="57.746558"><ele>3.0</ele></trkpt>
<trkpt lat="-20.354242" lon="57.746391"><ele>3.0</ele></trkpt>
<trkpt lat="-20.354024" lon="57.746225"><ele>3.0</ele></trkpt>
<trkpt lat="-20.353806" lon="57.746057"><ele>3.0</ele></trkpt>
<trkpt lat="-20.353587" lon="57.745890"><ele>3.0</ele></trkpt>
<trkpt lat="-20.353369" lon="57.745722"><ele>3.0</ele></trkpt>
<trkpt lat="-20.353150" lon="57.745554"><ele>3.0</ele></trkpt>
<trkpt lat="-20.352932" lon="57.745386"><ele>3.0</ele></trkpt>
<trkpt lat="-20.352713" lon="57.745218"><ele>3.0</ele></trkpt>
<trkpt lat="-20.352494" lon="57.745049"><ele>3.0</ele></trkpt>
<trkpt lat="-20.352275" lon="57.744880"><ele>3.0</ele></trkpt>
<trkpt lat="-20.352056" lon="57.744710"><ele>3.6</ele></trkpt>
<trkpt lat="-20.351836" lon="57.744541"><ele>5.7</ele></trkpt>
<trkpt lat="-20.351617" lon="57.744371"><ele>7.8</ele></trkpt>
<trkpt lat="-20.351398" lon="57.744201"><ele>9.8</ele></trkpt>
<trkpt lat="-20.351178" lon="57.744030"><ele>11.9</ele></trkpt>
<trkpt lat="-20.350959" lon="57.743860"><ele>14.0</ele></trkpt>
<trkpt lat="-20.350739" lon="57.743689"><ele>16.1</ele></trkpt>
<trkpt lat="-20.350519" lon="57.743518"><ele>18.2</ele></trkpt>
<trkpt lat="-20.350299" lon="57.743346"><ele>20.3</ele></trkpt>
<trkpt lat="-20.350080" lon="57.743175"><ele>22.4</ele></trkpt>
<trkpt lat="-20.349860" lon="57.743003"><ele>24.5</ele></trkpt>
<trkpt lat="-20.349640" lon="57.742831"><ele>26.6</ele></trkpt>
<trkpt lat="-20.349420" lon="57.742659"><ele>28.7</ele></trkpt>
<trkpt lat="-20.349200" lon="57.742486"><ele>30.7</ele></trkpt>
<trkpt lat="-20.348980" lon="57.742314"><ele>32.8</ele></trkpt>
<trkpt lat="-20.348760" lon="57.742141"><ele>34.9</ele></trkpt>
<trkpt lat="-20.348540" lon="57.741968"><ele>37.0</ele></trkpt>
<trkpt lat="-20.348320" lon="57.741794"><ele>39.0</ele></trkpt>
<trkpt lat="-20.348100" lon="57.741621"><ele>41.1</ele></trkpt>
<trkpt lat="-20.347880" lon="57.741447"><ele>43.1</ele></trkpt>
<trkpt lat="-20.347660" lon="57.741273"><ele>45.2</ele></trkpt>
<trkpt lat="-20.347440" lon="57.741099"><ele>47.2</ele></trkpt>
<trkpt lat="-20.347220" lon="57.740924"><ele>49.3</ele></trkpt>
<trkpt lat="-20.347000" lon="57.740750"><ele>51.3</ele></trkpt>
<trkpt lat="-20.346780" lon="57.740575"><ele>53.3</ele></trkpt>
<trkpt lat="-20.346561" lon="57.740400"><ele>55.3</ele></trkpt>
<trkpt lat="-20.346341" lon="57.740225"><ele>57.3</ele></trkpt>
<trkpt lat="-20.346121" lon="57.740050"><ele>59.3</ele></trkpt>
<trkpt lat="-20.345901" lon="57.739874"><ele>61.3</ele></trkpt>
<trkpt lat="-20.345682" lon="57.739699"><ele>63.3</ele></trkpt>
<trkpt lat="-20.345462" lon="57.739523"><ele>65.2</ele></trkpt>
<trkpt lat="-20.345243" lon="57.739347"><ele>67.2</ele></trkpt>
<trkpt lat="-20.345023" lon="57.739171"><ele>69.1</ele></trkpt>
<trkpt lat="-20.344804" lon="57.738995"><ele>71.0</ele></trkpt>
<trkpt lat="-20.344585" lon="57.738818"><ele>73.0</ele></trkpt>
<trkpt lat="-20.344365" lon="57.738642"><ele>74.9</ele></trkpt>
<trkpt lat="-20.344146" lon="57.738465"><ele>76.7</ele></trkpt>
<trkpt lat="-20.343927" lon="57.738288"><ele>78.6</ele></trkpt>
<trkpt lat="-20.343708" lon="57.738111"><ele>80.5</ele></trkpt>
<trkpt lat="-20.343490" lon="57.737934"><ele>82.3</ele></trkpt>
<trkpt lat="-20.343271" lon="57.737757"><ele>84.1</ele></trkpt>
<trkpt lat="-20.343053" lon="57.737579"><ele>85.9</ele></trkpt>
<trkpt lat="-20.342834" lon="57.737402"><ele>87.7</ele></trkpt>
<trkpt lat="-20.342616" lon="57.737224"><ele>89.5</ele></trkpt>
<trkpt lat="-20.342398" lon="57.737046"><ele>91.3</ele></trkpt>
<trkpt lat="-20.342180" lon="57.736868"><ele>93.0</ele></trkpt>
<trkpt lat="-20.341962" lon="57.736690"><ele>94.7</ele></trkpt>
<trkpt lat="-20.341745" lon="57.736512"><ele>96.4</ele></trkpt>
<trkpt lat="-20.341527" lon="57.736334"><ele>98.1</ele></trkpt>
<trkpt lat="-20.341310" lon="57.736155"><ele>99.8</ele></trkpt>
<trkpt lat="-20.341093" lon="57.735977"><ele>101.4</ele></trkpt>
<trkpt lat="-20.340876" lon="57.735798"><ele>103.1</ele></trkpt>
<trkpt lat="-20.340659" lon="57.735620"><ele>104.7</ele></trkpt>
<trkpt lat="-20.340442" lon="57.735441"><ele>106.3</ele></trkpt>
<trkpt lat="-20.340226" lon="57.735262"><ele>107.8</ele></trkpt>
<trkpt lat="-20.340010" lon="57.735083"><ele>109.4</ele></trkpt>
<trkpt lat="-20.339794" lon="57.734904"><ele>110.9</ele></trkpt>
<trkpt lat="-20.339578" lon="57.734725"><ele>112.4</ele></trkpt>
<trkpt lat="-20.339363" lon="57.734546"><ele>113.9</ele></trkpt>
<trkpt lat="-20.339147" lon="57.734367"><ele>115.4</ele></trkpt>
<trkpt lat="-20.338932" lon="57.734187"><ele>116.8</ele></trkpt>
<trkpt lat="-20.338717" lon="57.734008"><ele>118.2</ele></trkpt>
<trkpt lat="-20.338503" lon="57.733829"><ele>119.6</ele></trkpt>
<trkpt lat="-20.338288" lon="57.733649"><ele>121.0</ele></trkpt>
<trkpt lat="-20.338074" lon="57.733470"><ele>122.3</ele></trkpt>
<trkpt lat="-20.337860" lon="57.733290"><ele>123.7</ele></trkpt>
<trkpt lat="-20.337647" lon="57.733110"><ele>125.0</ele></trkpt>
<trkpt lat="-20.337433" lon="57.732931"><ele>126.2</ele></trkpt>
<trkpt lat="-20.337220" lon="57.732751"><ele>127.5</ele></trkpt>
<trkpt lat="-20.337008" lon="57.732571"><ele>128.7</ele></trkpt>
<trkpt lat="-20.336795" lon="57.732391"><ele>129.9</ele></trkpt>
<trkpt lat="-20.336583" lon="57.732211"><ele>131.1</ele></trkpt>
<trkpt lat="-20.336371" lon="57.732032"><ele>132.3</ele></trkpt>
<trkpt lat="-20.336159" lon="57.731852"><ele>133.4</ele></trkpt>
<trkpt lat="-20.335948" lon="57.731672"><ele>134.5</ele></trkpt>
<trkpt lat="-20.335737" lon="57.731492"><ele>135.6</ele></trkpt>
<trkpt lat="-20.335526" lon="57.731312"><ele>136.7</ele></trkpt>
<trkpt lat="-20.335316" lon="57.731132"><ele>137.7</ele></trkpt>
<trkpt lat="-20.335106" lon="57.730952"><ele>138.7</ele></trkpt>
<trkpt lat="-20.334896" lon="57.730772"><ele>139.7</ele></trkpt>
<trkpt lat="-20.334687" lon="57.730592"><ele>140.6</ele></trkpt>
<trkpt lat="-20.334478" lon="57.730412"><ele>141.6</ele></trkpt>
<trkpt lat="-20.334269" lon="57.730232"><ele>142.5</ele></trkpt>
<trkpt lat="-20.334061" lon="57.730052"><ele>143.4</ele></trkpt>
<trkpt lat="-20.333853" lon="57.729872"><ele>144.2</ele></trkpt>
<trkpt lat="-20.333645" lon="57.729692"><ele>145.0</ele></trkpt>
<trkpt lat="-20.333438" lon="57.729512"><ele>145.8</ele></trkpt>
<trkpt lat="-20.333231" lon="57.729332"><ele>146.6</ele></trkpt>
<trkpt lat="-20.333024" lon="57.729152"><ele>147.4</ele></trkpt>
<trkpt lat="-20.332818" lon="57.728972"><ele>148.1</ele></trkpt>
<trkpt lat="-20.332612" lon="57.728792"><ele>148.8</ele></trkpt>
<trkpt lat="-20.332407" lon="57.728613"><ele>149.5</ele></trkpt>
<trkpt lat="-20.332202" lon="57.728433"><ele>150.1</ele></trkpt>
<trkpt lat="-20.331997" lon="57.728253"><ele>150.8</ele></trkpt>
<trkpt lat="-20.331793" lon="57.728073"><ele>151.4</ele></trkpt>
<trkpt lat="-20.331590" lon="57.727894"><ele>151.9</ele></trkpt>
<trkpt lat="-20.331386" lon="57.727714"><ele>152.5</ele></trkpt>
<trkpt lat="-20.331183" lon="57.727535"><ele>153.0</ele></trkpt>
<trkpt lat="-20.330981" lon="57.727355"><ele>153.5</ele></trkpt>
<trkpt lat="-20.330779" lon="57.727176"><ele>154.0</ele></trkpt>
<trkpt lat="-20.330577" lon="57.726996"><ele>154.4</ele></trkpt>
<trkpt lat="-20.330376" lon="57.726817"><ele>154.9</ele></trkpt>
<trkpt lat="-20.330175" lon="57.726638"><ele>155.3</ele></trkpt>
<trkpt lat="-20.329975" lon="57.726459"><ele>155.6</ele></trkpt>
<trkpt lat="-20.329775" lon="57.726280"><ele>156.0</ele></trkpt>
<trkpt lat="-20.329576" lon="57.726101"><ele>156.3</ele></trkpt>
<trkpt lat="-20.329377" lon="57.725922"><ele>156.6</ele></trkpt>
<trkpt lat="-20.329179" lon="57.725743"><ele>156.9</ele></trkpt>
<trkpt lat="-20.328981" lon="57.725564"><ele>157.2</ele></trkpt>
<trkpt lat="-20.328783" lon="57.725385"><ele>157.4</ele></trkpt>
<trkpt lat="-20.328586" lon="57.725207"><ele>157.6</ele></trkpt>
<trkpt lat="-20.328390" lon="57.725028"><ele>157.8</ele></trkpt>
<trkpt lat="-20.328194" lon="57.724850"><ele>158.0</ele></trkpt>
<trkpt lat="-20.327998" lon="57.724672"><ele>158.1</ele></trkpt>
<trkpt lat="-20.327803" lon="57.724494"><ele>158.3</ele></trkpt>
<trkpt lat="-20.327609" lon="57.724316"><ele>158.4</ele></trkpt>
<trkpt lat="-20.327415" lon="57.724138"><ele>158.4</ele></trkpt>
<trkpt lat="-20.327222" lon="57.723960"><ele>158.5</ele></trkpt>
<trkpt lat="-20.327029" lon="57.723782"><ele>158.5</ele></trkpt>
<trkpt lat="-20.326837" lon="57.723605"><ele>158.6</ele></trkpt>
<trkpt lat="-20.326645" lon="57.723427"><ele>158.6</ele></trkpt>
<trkpt lat="-20.326453" lon="57.723250"><ele>158.5</ele></trkpt>
<trkpt lat="-20.326263" lon="57.723073"><ele>158.5</ele></trkpt>
<trkpt lat="-20.326073" lon="57.722896"><ele>158.4</ele></trkpt>
<trkpt lat="-20.325883" lon="57.722719"><ele>158.4</ele></trkpt>
<trkpt lat="-20.325694" lon="57.722542"><ele>158.3</ele></trkpt>
<trkpt lat="-20.325505" lon="57.722366"><ele>158.2</ele></trkpt>
<trkpt lat="-20.325317" lon="57.722189"><ele>158.0</ele></trkpt>
<trkpt lat="-20.325130" lon="57.722013"><ele>157.9</ele></trkpt>
<trkpt lat="-20.324943" lon="57.721837"><ele>157.7</ele></trkpt>
<trkpt lat="-20.324757" lon="57.721661"><ele>157.5</ele></trkpt>
<trkpt lat="-20.324572" lon="57.721485"><ele>157.3</ele></trkpt>
<trkpt lat="-20.324387" lon="57.721310"><ele>157.1</ele></trkpt>
<trkpt lat="-20.324202" lon="57.721134"><ele>156.9</ele></trkpt>
<trkpt lat="-20.324018" lon="57.720959"><ele>156.6</ele></trkpt>
<trkpt lat="-20.323835" lon="57.720784"><ele>156.4</ele></trkpt>
<trkpt lat="-20.323653" lon="57.720609"><ele>156.1</ele></trkpt>
<trkpt lat="-20.323471" lon="57.720434"><ele>155.8</ele></trkpt>
<trkpt lat="-20.323289" lon="57.720260"><ele>155.5</ele></trkpt>
<trkpt lat="-20.323109" lon="57.720085"><ele>155.2</ele></trkpt>
<trkpt lat="-20.322928" lon="57.719911"><ele>154.9</ele></trkpt>
<trkpt lat="-20.322749" lon="57.719737"><ele>154.5</ele></trkpt>
<trkpt lat="-20.322570" lon="57.719563"><ele>154.2</ele></trkpt>
<trkpt lat="-20.322392" lon="57.719390"><ele>153.8</ele></trkpt>
<trkpt lat="-20.322214" lon="57.719217"><ele>153.4</ele></trkpt>
<trkpt lat="-20.322038" lon="57.719043"><ele>153.0</ele></trkpt>
<trkpt lat="-20.321861" lon="57.718871"><ele>152.6</ele></trkpt>
<trkpt lat="-20.321686" lon="57.718698"><ele>152.2</ele></trkpt>
<trkpt lat="-20.321511" lon="57.718525"><ele>151.8</ele></trkpt>
<trkpt lat="-20.321337" lon="57.718353"><ele>151.4</ele></trkpt>
<trkpt lat="-20.321163" lon="57.718181"><ele>151.0</ele></trkpt>
<trkpt lat="-20.320990" lon="57.718009"><ele>150.5</ele></trkpt>
<trkpt lat="-20.320818" lon="57.717838"><ele>150.1</ele></trkpt>
<trkpt lat="-20.320647" lon="57.717666"><ele>149.6</ele></trkpt>
<trkpt lat="-20.320476" lon="57.717495"><ele>149.2</ele></trkpt>
<trkpt lat="-20.320306" lon="57.717324"><ele>148.7</ele></trkpt>
<trkpt lat="-20.320136" lon="57.717154"><ele>148.2</ele></trkpt>
<trkpt lat="-20.319967" lon="57.716984"><ele>147.7</ele></trkpt>
<trkpt lat="-20.319799" lon="57.716813"><ele>147.3</ele></trkpt>
<trkpt lat="-20.319632" lon="57.716644"><ele>146.8</ele></trkpt>
<trkpt lat="-20.319466" lon="57.716474"><ele>146.3</ele></trkpt>
</trkseg></trk></gpx>